project_name,developer,street_name,existing,latitude,longitude
THE SAIL @ MARINA BAY,,,Y,1.280925,103.852694
HILLCREST ARCADIA,,,Y,1.334934,103.80938
BELLE VUE RESIDENCES,,,Y,1.352083,103.819836
DUCHESS RESIDENCES,,,Y,1.352083,103.819836
SENTOSA COVE,,,Y,1.244819,103.841058
THE HILLSIDE,,,Y,1.357714,103.877382
THE ORCHARD RESIDENCES,,,Y,1.303895,103.831941
THE ARTE,,,Y,1.352083,103.819836
CLEMENTI PARK,,,Y,1.313547,103.772215
GOODWOOD RESIDENCE,,,Y,1.352083,103.819836
WOODHAVEN,,,Y,1.352083,103.819836
ELLIOT AT THE EAST COAST,,,Y,1.352083,103.819836
THE COUNTRYSIDE,,,Y,1.389946,103.839591
ASPEN HEIGHTS,,,Y,1.352083,103.819836
EUHABITAT,OPH Marymount Ltd/Transurban Properties Pte Ltd,Jalan Eunos,Y,1.352083,103.819836
HILLCREST PARK,,,Y,1.331864,103.80784
PROXIMO,,,Y,1.352083,103.819836
KOVAN RESIDENCES,,,Y,1.361154,103.885038
DUKES RESIDENCE,,,Y,1.352083,103.819836
NASSIM PARK RESIDENCES,,,Y,1.352083,103.819836
THE TRILLIUM,,,Y,1.352083,103.819836
CAIRNHILL RESIDENCES,,,Y,1.308186,103.838402
THE OCEANFRONT @ SENTOSA COVE,,,Y,1.244819,103.841058
VARSITY PARK CONDOMINIUM,,,Y,1.352083,103.819836
OEI TIONG HAM PARK,,,Y,1.315039,103.792787
THE PARC CONDOMINIUM,,,Y,1.352083,103.819836
D' DALVEY,,,Y,1.314972,103.820775
CLOVER BY THE PARK,,,Y,1.352083,103.819836
THE FOLIAGE,,,Y,1.352083,103.819836
THE RAINTREE,,,Y,1.352083,103.819836
KOVAN MELODY,,,Y,1.361154,103.885038
DAHLIA PARK CONDOMINIUM,,,Y,1.352083,103.819836
THE SEAFRONT ON MEYER,,,Y,1.352083,103.819836
FLORIDIAN,,,Y,1.356552,103.827184
WATERFRONT WAVES,,,Y,1.338124,103.930079
ZENITH,,,Y,1.352083,103.819836
THE VERVE,,,Y,1.304613,103.852001
CASA MEYFORT,,,Y,1.352083,103.819836
RIVIERA RESIDENCES,,,Y,1.352083,103.819836
MARINA BAY SUITES,,,Y,1.282848,103.860929
MELVILLE PARK,,,Y,1.352083,103.819836
CANBERRA RESIDENCES,,,Y,1.458099,103.822242
LAGOON VIEW,,,Y,1.310245,103.932586
AMBER RESIDENCES,,,Y,1.352083,103.819836
THE INTERLACE,,,Y,1.288174,103.805375
WATERBANK AT DAKOTA,,,Y,1.352083,103.819836
MAPLEWOODS,,,Y,1.352083,103.819836
THE MINTON,,,Y,1.349957,103.881638
THE SHORE RESIDENCES,,,Y,1.352083,103.819836
HILLTOPS,,,Y,1.311378,103.774406
AALTO,,,Y,1.352083,103.819836
WATERMARK ROBERTSON QUAY,,,Y,1.290832,103.838023
RV RESIDENCES,,,Y,1.352083,103.819836
THE TROPICA,,,Y,1.349138,103.92798
THE ROCHESTER,,,Y,1.305998,103.788644
ARDMORE PARK,,,Y,1.309024,103.828968
HILLCREST VILLA,,,Y,1.352083,103.819836
CAMDEN PARK,,,Y,1.328998,103.814661
OPERA ESTATE,,,Y,1.319069,103.924247
THE GALE,,,Y,1.352083,103.819836
YONG AN PARK,,,Y,1.352083,103.819836
THE SENSORIA,,,Y,1.352083,103.819836
THOMSON THREE,United Venture Development (Thomson) Pte Ltd,Bright Hill Drive,Y,1.376071,103.832123
THE GARDENS AT BISHAN,,,Y,1.364998,103.830735
RIS GRANDEUR,,,Y,1.373772,103.940413
COSTA DEL SOL,,,Y,1.311589,103.939143
SEMBAWANG HILLS ESTATE,,,Y,1.375948,103.830428
DAKOTA RESIDENCES,,,Y,1.352083,103.819836
THE MEYERISE,,,Y,1.349957,103.881638
FERRARIA PARK CONDOMINIUM,,,Y,1.352083,103.819836
LEEDON RESIDENCE,Leedon Residence Development Pte Ltd,Leedon Heights,Y,1.352083,103.819836
BAYSHORE PARK,,,Y,1.312183,103.93931
DOUBLE BAY RESIDENCES,,,Y,1.352083,103.819836
PEBBLE BAY,,,Y,1.297188,103.872225
SERANGOON GARDEN ESTATE,,,Y,1.363707,103.866381
MERA WOODS,,,Y,1.352083,103.819836
SAVANNAH CONDOPARK,,,Y,1.352083,103.819836
PRESTIGE HEIGHTS,,,Y,1.352083,103.819836
CHANGI RISE CONDOMINIUM,,,Y,1.344621,103.963633
MI CASA,,,Y,1.352083,103.819836
CASTLE GREEN,,,Y,1.386078,103.841045
REFLECTIONS AT KEPPEL BAY,,,Y,1.266722,103.810079
LATITUDE,,,Y,1.352083,103.819836
BRADDELL VIEW,,,Y,1.344367,103.840323
ICON,,,Y,1.274935,103.845312
DOMAIN 21,,,Y,1.347685,103.843721
HILLVIEW VILLAS,,,Y,1.359532,103.763823
SANNY PARK,,,Y,1.352083,103.819836
LIVIA,,,Y,1.352083,103.819836
LAKEHOLMZ,,,Y,1.352083,103.819836
HERITAGE VIEW,,,Y,1.410224,103.834069
ST THOMAS SUITES,,,Y,1.298114,103.835725
THE WATERLINE,,,Y,1.352083,103.819836
MARTIN PLACE RESIDENCES,,,Y,1.29409,103.838112
RIO VISTA,,,Y,1.372405,103.900676
RIVERGATE,,,Y,1.352083,103.819836
8@WOODLEIGH,,,Y,1.335739,103.869511
WATERVIEW,,,Y,1.352083,103.819836
THE MARQUE @ IRRAWADDY,,,Y,1.325982,103.846036
TIARA,,,Y,1.310707,103.910459
A TREASURE TROVE,Sim Lian JV (Punggol Central) Pte Ltd,Punggol Walk,Y,1.352083,103.819836
CARIBBEAN AT KEPPEL BAY,,,Y,1.267391,103.816722
THE BEVERLY,,,Y,1.352083,103.819836
SELETAR HILLS ESTATE,,,Y,1.387041,103.872983
ARCHIPELAGO,United Venture Development (Bedok) Pte Ltd,Bedok Reservoir Road,Y,1.352083,103.819836
SOUTHBANK,,,Y,1.306476,103.864525
CASPIAN,,,Y,1.352083,103.819836
CHELSEA GARDENS,,,Y,1.352083,103.819836
URBAN SUITES,,,Y,1.303808,103.838337
HILLINGTON GREEN,,,Y,1.360369,103.764275
THE SEAWIND,Bayshore Green Pte Ltd,Lorong M Telok Kurau,Y,1.352083,103.819836
LE REVE,,,Y,1.352083,103.819836
THE STERLING,,,Y,1.33597,103.782639
TEACHER'S HOUSING ESTATE,,,Y,1.352083,103.819836
HILLSIDE GARDENS,,,Y,1.357714,103.877382
FONTAINE PARRY,,,Y,1.352083,103.819836
PARKVIEW APARTMENTS,,,Y,1.341384,103.76029
HELIOS RESIDENCES,,,Y,1.352083,103.819836
THOMSON V TWO,,,Y,1.378004,103.834165
MANDARIN GARDEN CONDOMINIUM,,,Y,1.352083,103.819836
ASTRID MEADOWS,,,Y,1.319782,103.792515
HUNDRED TREES,,,Y,1.352083,103.819836
SEA VIEW PARK,,,Y,1.300277,103.896426
GARDENVISTA,,,Y,1.352083,103.819836
CENTRO RESIDENCES,,,Y,1.352083,103.819836
WESTWOOD PARK,,,Y,1.351266,103.698472
COSTA RHU,,,Y,1.297607,103.867327
WATERFALL GARDENS,,,Y,1.352083,103.819836
THE CREST,Wingcrown Investment Pte Ltd,Prince Charles Crescent,Y,1.331864,103.80784
THE MAKENA,,,Y,1.352083,103.819836
MEADOWS @ PEIRCE,,,Y,1.305212,103.807426
RAFFLESIA CONDOMINIUM,,,Y,1.352083,103.819836
HIGHGATE,,,Y,1.291044,103.848995
SKY HABITAT,,,Y,1.352083,103.819836
RIPPLE BAY,MCL Land (Pasir Ris) Pte Ltd,Pasir Ris Link,Y,1.352083,103.819836
THE SOVEREIGN,,,Y,1.352083,103.819836
HILLVIEW GREEN,,,Y,1.352083,103.819836
SANCTUARY GREEN,,,Y,1.352083,103.819836
PINE GROVE,,,Y,1.317336,103.775025
DOVER PARKVIEW,,,Y,1.352083,103.819836
TEXTILE CENTRE,,,Y,1.30325,103.861083
THE LINCOLN RESIDENCES,,,Y,1.352083,103.819836
THE SANTORINI,MCC Land (Singapore) Pte Ltd,Tampines Street 86,Y,1.352083,103.819836
THE GREENWOOD,,,Y,1.335384,103.805908
FIVE CHANCERY,,,Y,1.319255,103.837012
LA SUISSE,,,Y,1.352083,103.819836
PARVIS,,,Y,1.352083,103.819836
THOMSON GRAND,Luxury Green Development Pte Ltd,Sin Ming Walk,Y,1.352083,103.819836
ALANA,Bullion Holdings Pte Ltd/Cabana JV Pte Ltd,Sunrise Terrace,Y,1.352083,103.819836
ARDMORE II,,,Y,1.309263,103.828246
THE AZURE,,,Y,1.251709,103.847904
THE SHELFORD,,,Y,1.327497,103.811276
CITYLIGHTS,,,Y,1.308344,103.863135
SIN MING PLAZA,,,Y,1.352539,103.835785
THE MARBELLA,,,Y,1.352083,103.819836
TANAMERA CREST,,,Y,1.332566,103.942134
CASA FORTUNA,,,Y,1.352083,103.819836
THE DRAYCOTT,,,Y,1.309655,103.832151
GOLDENHILL PARK CONDOMINIUM,,,Y,1.352083,103.819836
BISHOPSGATE RESIDENCES,,,Y,1.352083,103.819836
WATER PLACE,,,Y,1.353419,103.84273
ONE K GREENLANE,,,Y,1.311367,103.893429
DUET,,,Y,1.352083,103.819836
WATERFRONT GOLD,,,Y,1.352083,103.819836
FRANKEL ESTATE,,,Y,1.31656,103.917849
SELETAR PARK,,,Y,1.407095,103.884384
PARK NATURA,,,Y,1.429978,103.844243
D'LEEDON,,,Y,1.352083,103.819836
BOTANNIA,,,Y,1.352083,103.819836
PARC ROSEWOOD,,,Y,1.352083,103.819836
SELETARIS,,,Y,1.43549,103.824434
PARC OASIS,,,Y,1.343667,103.734626
THE LUXURIE,,,Y,1.352083,103.819836
THE CITRINE,,,Y,1.352083,103.819836
QUEENS,,,Y,1.320336,103.809056
CORALIS,,,Y,1.352083,103.819836
THE PATERSON,,,Y,1.302229,103.831282
OUE TWIN PEAKS,,,Y,1.352083,103.819836
THE SCALA,,,Y,1.352083,103.819836
THE TESSARINA,,,Y,1.333338,103.789982
FLAMINGO VALLEY,,,Y,1.317867,103.921746
LUXUS HILLS,Singapore United Estates Pte Ltd,Ang Mo Kio Avenue 5/Seletar Road/Yio Chu Kang Road,Y,1.379326,103.86987
ROBIN SUITES,Robin25 Pte Ltd,Robin Road,Y,1.352083,103.819836
HILLVIEW REGENCY,,,Y,1.352083,103.819836
COTE D'AZUR,,,Y,1.352083,103.819836
EASTWOOD GREEN,,,Y,1.322829,103.956128
CORALS AT KEPPEL BAY,Keppel Bay Pte Ltd,Keppel Bay Drive,Y,1.352083,103.819836
THE ESTUARY,,,Y,1.352083,103.819836
GRAMERCY PARK,Aston Properties Pte Ltd,Grange Road,Y,1.352083,103.819836
6 DERBYSHIRE,Fantasia (Novena) Pte Ltd,Derbyshire Road,Y,1.316002,103.845786
CITY SQUARE RESIDENCES,,,Y,1.310734,103.85739
MONTVIEW,,,Y,1.31679,103.777245
RIVER PLACE,,,Y,1.289776,103.841153
ALTEZ,,,Y,1.352083,103.819836
THE WATERINA,,,Y,1.313035,103.890587
SOLEIL @ SINARAN,,,Y,1.352083,103.819836
ALEXIS,,,Y,1.352083,103.819836
ELIAS GREEN,,,Y,1.371525,103.940975
PARC PALAIS,,,Y,1.352083,103.819836
COUNTRY PARK CONDOMINIUM,,,Y,1.316805,103.822178
COMPASS HEIGHTS,,,Y,1.352083,103.819836
SEMBAWANG PARK,,,Y,1.460382,103.83632
SURIN GROVE,,,Y,1.356388,103.884264
CATHAY GARDENS,,,Y,1.352083,103.819836
RAFFLES PARK,,,Y,1.291458,103.85859
NATHAN RESIDENCES,,,Y,1.352083,103.819836
THE NEXUS,,,Y,1.334421,103.786898
GREEN HILL ESTATE,,,Y,1.311242,103.892689
SKYLINE RESIDENCES,,,Y,1.352083,103.819836
EAST MEADOWS,,,Y,1.399633,103.915098
HEDGES PARK CONDOMINIUM,,,Y,1.352083,103.819836
ONE CHATSWORTH,,,Y,1.299212,103.824859
SUMMERHILL,,,Y,1.358365,103.765872
EDELWEISS PARK CONDOMINIUM,,,Y,1.352083,103.819836
MODENA,,,Y,1.342661,103.955307
GLENDALE PARK,,,Y,1.362226,103.765881
MEADOWLODGE,,,Y,1.352083,103.819836
ST PATRICK'S ROW,,,Y,1.308102,103.912675
TOMLINSON HEIGHTS,,,Y,1.303912,103.826007
BRADDELL HEIGHTS ESTATE,,,Y,1.343212,103.85556
THE WHARF RESIDENCE,,,Y,1.352083,103.819836
THE SKYWOODS,Bukit Timah Green Development Pte Ltd,Dairy Farm Heights,Y,1.352083,103.819836
THE BEACON,,,Y,1.352083,103.819836
STARVILLE,,,Y,1.352083,103.819836
THE GLYNDEBOURNE,,,Y,1.352083,103.819836
SANT RITZ,Santarli Realty Pte Ltd,Pheng Geck Avenue,Y,1.352083,103.819836
ONE DEVONSHIRE,,,Y,1.297519,103.837912
PINEWOOD GARDENS,,,Y,1.428243,103.780078
SEASTRAND,,,Y,1.352083,103.819836
ONE AMBER,,,Y,1.299231,103.89848
THE URBANITE,,,Y,1.352083,103.819836
THE PALETTE,,,Y,1.352083,103.819836
DE CASALLE,,,Y,1.352083,103.819836
RIVERWALK APARTMENTS,,,Y,1.352083,103.819836
WATERFRONT KEY,,,Y,1.337133,103.9317
THE CENTRIS,,,Y,1.352083,103.819836
LANDBAY CONDOMINIUM,,,Y,1.352083,103.819836
EAST COAST RESIDENCES,,,Y,1.379282,103.960998
ONE JERVOIS,,,Y,1.292711,103.825638
SELETAR SPRINGS CONDOMINIUM,,,Y,1.352083,103.819836
368 THOMSON,,,Y,1.327207,103.84183
JERVOIS LODGE,,,Y,1.294473,103.821964
EIGHT RIVERSUITES,UE Development (Bendemeer) Pte Ltd,Whampoa East,Y,1.321732,103.864602
RIVEREDGE,,,Y,1.352083,103.819836
H2O RESIDENCES,,,Y,1.352083,103.819836
NEWTON ONE,,,Y,1.313925,103.839668
TERRASSE,,,Y,1.368066,103.876688
THE INTERWEAVE,,,Y,1.352083,103.819836
BELMOND GREEN,,,Y,1.316739,103.798894
RIVERSOUND RESIDENCE,Qingjian Realty (Sengkang) Pte Ltd,Sengkang East Avenue,Y,1.352083,103.819836
CABANA,,,Y,1.352083,103.819836
ESTE VILLA,,,Y,1.352083,103.819836
ROBIN RESIDENCES,Sing Holdings (Robin) Pte Ltd,Robin Drive,Y,1.352083,103.819836
GALLOP GREEN,,,Y,1.314688,103.811974
TREVISTA,,,Y,1.337772,103.846738
OLEANDER TOWERS,,,Y,1.333166,103.844002
BOULEVARD VUE,,,Y,1.303374,103.829034
TRELLIS TOWERS,,,Y,1.330427,103.843792
ASTORIA PARK,,,Y,1.352083,103.819836
PALM GARDENS,,,Y,1.314512,103.930443
EAST VIEW GARDEN,,,Y,1.451372,103.789357
TERESA VILLE,,,Y,1.276317,103.82425
LIGHTHOUSE,,,Y,1.378241,103.959552
CLEMENTIWOODS CONDOMINIUM,,,Y,1.352083,103.819836
TANGLIN RESIDENCES,,,Y,1.317829,103.832478
TANGERINE GROVE,,,Y,1.352083,103.819836
THE WATERSIDE,,,Y,1.337133,103.9317
MARINA ONE RESIDENCES,MS Commercial Pte Ltd/MS Residential 1 Pte Ltd/MS Residential 2 Pte Ltd,Marina Way/Straits View,Y,1.317829,103.832478
ASTON RESIDENCE,,,Y,1.352083,103.819836
PARRY PARK,,,Y,1.364375,103.878378
AVILA TERRACE,,,Y,1.359912,103.968981
MANDALE HEIGHTS,,,Y,1.352083,103.819836
BEDOK COURT,,,Y,1.326638,103.951137
GILSTEAD BROOKS,,,Y,1.352083,103.819836
STRATA,,,Y,1.352083,103.819836
LEVILLE ISUITES,,,Y,1.305919,103.902587
PEOPLE'S PARK COMPLEX,,,Y,1.284198,103.842549
PARC OLYMPIA,KBD Flora Pte Ltd,Flora Drive,Y,1.352083,103.819836
THE GLADES,Sherwood Development Pte Ltd,Bedok Rise,Y,1.352083,103.819836
PEACH GARDEN,,,Y,1.298089,103.895818
RIDGEWOOD,,,Y,1.317093,103.778489
NATHAN PLACE,,,Y,1.296262,103.825725
ATRIUM RESIDENCES,,,Y,1.352083,103.819836
PEAKVIEW ESTATE,,,Y,1.352083,103.819836
BARTLEY RIDGE,Mount V Development Pte Ltd,Mount Vernon Road,Y,1.343714,103.87802
CAVENAGH HOUSE,,,Y,1.352083,103.819836
WEST BAY CONDOMINIUM,,,Y,1.299051,103.766868
SHELFORD 23,,,Y,1.327891,103.812337
SYMPHONY HEIGHTS,,,Y,1.356858,103.767371
NINE RESIDENCES,CEL-Yishun (Commercial) Pte Ltd/CEL-Yishun (Residential) Pte Ltd,Yishun Avenue 9,Y,1.317829,103.832478
D'CHATEAU @ SHELFORD,,,Y,1.352083,103.819836
CALLIDORA VILLE,,,Y,1.352083,103.819836
SCOTTS HIGHPARK,,,Y,1.352083,103.819836
LAKEPOINT CONDOMINIUM,,,Y,1.340104,103.716259
MT SINAI RESIDENCES,,,Y,1.352083,103.819836
THE VILLAS @ SENTOSA COVE,,,Y,1.25882,103.815038
PARC CENTROS,Wee Hur (Punggol Central) Pte Ltd,Punggol Central,Y,1.352083,103.819836
TANGLIN HILL CONDOMINIUM,,,Y,1.352083,103.819836
CENTURION 12,,,Y,1.352083,103.819836
THE SUNNY SPRING,,,Y,1.352083,103.819836
SEAHILL,Boo Han Holdings Pte Ltd,West Coast Crescent,Y,1.352083,103.819836
CHIP HOCK GARDENS,,,Y,1.352083,103.819836
CASA MERAH,,,Y,1.352083,103.819836
NORTHVALE,,,Y,1.387644,103.745935
THE GREENWICH,Far East Square Pte Ltd,Seletar Road,Y,1.369523,103.90925
MUTIARA CREST,,,Y,1.352083,103.819836
THE GERANIUM,,,Y,1.352083,103.819836
SERANGOON PARK,,,Y,1.370635,103.900919
YISHUN EMERALD,,,Y,1.352083,103.819836
HORIZON TOWER,,,Y,1.298406,103.833362
STRATTON GREEN,,,Y,1.382209,103.865075
THE TOMLINSON,,,Y,1.303912,103.826007
SEASONS PARK,,,Y,1.385652,103.839171
MIRAGE TOWER,,,Y,1.352083,103.819836
THE SUMMIT,,,Y,1.315047,103.940899
RIVERVALE CREST,,,Y,1.384721,103.903279
CARABELLE,,,Y,1.352083,103.819836
BAYWATER,,,Y,1.407245,103.867509
MAYSPRINGS,,,Y,1.352083,103.819836
THE VISION,,,Y,1.352083,103.819836
SIGNATURE PARK,,,Y,1.342618,103.770264
SEA ESTA,,,Y,1.352083,103.819836
AZALEA PARK CONDOMINIUM,,,Y,1.352083,103.819836
RIVERSIDE MELODIES,,,Y,1.352083,103.819836
VALLEY PARK,,,Y,1.277721,103.850878
D'ECOSIA,,,Y,1.352083,103.819836
PALACIO,Residenza Pte Ltd,Lorong M Telok Kurau,Y,1.352083,103.819836
L'VIV,,,Y,1.352083,103.819836
GOLDEN MILE COMPLEX,,,Y,1.302809,103.865293
FAR HORIZON GARDENS,,,Y,1.352083,103.819836
AMBER SKYE,CS Amber Development Pte Ltd,Amber Road,Y,1.352083,103.819836
SUNRISE GARDENS,,,Y,1.388457,103.855432
JULUCA,,,Y,1.352083,103.819836
VENTURA HEIGHTS,,,Y,1.352083,103.819836
LA FIESTA,EL Development (Sengkang) Pte Ltd,Sengkang Square,Y,1.352083,103.819836
BLUE HORIZON,,,Y,1.352083,103.819836
TAI KENG GARDENS,,,Y,1.347203,103.884954
EVERGREEN PARK,,,Y,1.315132,103.934549
MY MANHATTAN,,,Y,1.352083,103.819836
GOODLUCK GARDEN,,,Y,1.339574,103.767907
CENTRAL GROVE,,,Y,1.344211,103.860034
SIMSVILLE,,,Y,1.316623,103.890334
THE MADEIRA,,,Y,1.310279,103.909781
CAIRNHILL PLAZA,,,Y,1.306578,103.837381
CHANGI HEIGHTS,,,Y,1.318358,103.908854
THE COAST AT SENTOSA COVE,,,Y,1.244819,103.841058
SHAMROCK PARK,,,Y,1.352083,103.819836
THE SIERRA,,,Y,1.317836,103.780183
WATTEN RESIDENCES,,,N,1.352083,103.819836
ADELPHI PARK ESTATE,,,N,1.352083,103.819836
VICTORIA PARK VILLAS,Athens Residential Development Pte Ltd,Coronation Road,N,1.320218,103.802953
FUYONG ESTATE,,,N,1.352083,103.819836
THE SHAUGHNESSY,,,N,1.417255,103.845908
WINDSOR PARK ESTATE,,,N,1.357389,103.825686
BELGRAVIA PARK,,,N,1.352083,103.819836
SOMMERVILLE PARK,,,N,1.34499,103.868203
SOO CHOW GARDEN,,,N,1.353878,103.831226
ONE SURIN,Urban Lofts Pte Ltd,Surin Avenue,N,1.354111,103.879562
TAI HWAN GARDEN,,,N,1.357436,103.861144
BEDOK RIA,,,N,1.327021,103.95307
SUNBIRD PARK,,,N,1.339377,103.959243
PAVILION PARK,,,N,1.368455,103.751751
JANSEN 8,,,N,1.358815,103.878034
GENTLE VILLAS,,,N,1.319638,103.839468
MIMOSA TERRACE,,,N,1.38417,103.860918
LADYHILL PARK,,,N,1.310373,103.824157
HILLSTA,TrustHouse Pte Ltd,Phoenix Road,N,1.376434,103.756693
YEW LIAN PARK,,,N,1.352083,103.819836
LIRIA TERRACE,,,N,1.360448,103.968256
PARK VILLAS,,,N,1.368006,103.877973
ONE LYNWOOD,,,N,1.344228,103.862892
MUGLISTON HILL,,,N,1.304598,103.900922
HEETON CLASSIC,,,N,1.352083,103.819836
WATTEN ESTATE,,,N,1.329303,103.809764
THE INGLEWOOD,,,N,1.360708,103.830039
THE SPRINGSIDE,Kallang Development Pte Ltd,Jalan Ulu Seletar/Sembawang Road,N,1.404658,103.820785
LUXUS HILLS (PH 7),,,N,1.352083,103.819836
SEMBAWANG SPRINGS ESTATE,,,N,1.352083,103.819836
PRESIDENT GARDENS,,,N,1.352083,103.819836
VISTA GARDEN,,,N,1.255506,103.818691
WESTVILLE,,,N,1.352595,103.701116
FANTA GARDEN,,,N,1.352083,103.819836
HARBOUR VIEW GARDENS,,,N,1.288264,103.770994
THOMSON GARDEN ESTATE,,,N,1.327496,103.841345
SUMMER PLACE,,,N,1.356529,103.868869
BEAU VISTA,,,N,1.352083,103.819836
PARRYVILLE,,,N,1.352083,103.819836
VILLA VERDE,,,N,1.389374,103.752911
LOYANG VILLAS,,,N,1.372122,103.972845
CORONATION VILLAGE,,,N,1.321882,103.805303
BRIGHTON CREST,,,N,1.360945,103.869065
EMERALD HILL CONSERVATION AREA,,,N,1.352083,103.819836
EXCELSIOR GARDENS,,,N,1.325011,103.95232
SHANGRI0LA PARK,,,N,1.369787,103.83305
GOLDEN RISE ESTATE,,,N,1.354651,103.861626
MING TECK PARK,,,N,1.319677,103.788405
PASIR RIS BEACH PARK,,,N,1.383695,103.947101
ST ANNE'S WOOD,,,N,1.391473,103.903135
REGENT VILLAS,,,N,1.322361,103.790981
PASIR PANJANG GARDENS,,,N,1.28086,103.784958
RICHARD'S PARK,,,N,1.361873,103.881739
FUDU PARK,,,N,1.38996,103.838203
SERENE PARK,,,N,1.322198,103.813694
JIN DING GARDEN,,,N,1.352083,103.819836
THE WHITLEY RESIDENCES,Hoi Hup Realty Pte Ltd,Whitley Road,N,1.352083,103.819836
GOLDHILL GARDENS,,,N,1.319249,103.831929
BEDOK GROVE,,,N,1.326638,103.951137
THE RIVERINA,,,N,1.379723,103.945527
POETS VILLAS,,,N,1.352083,103.819836
FLORIDA PARK,,,N,1.356552,103.827184
LIMAU VILLAS,,,N,1.322361,103.949176
SEMBAWANG STRAITS ESTATE,,,N,1.352083,103.819836
SAVOY PARK,,,N,1.333001,103.768276
PEOPLE'S GARDEN,,,N,1.367983,103.88886
PEIRCE VILLAS,,,N,1.305212,103.807426
LAKESIDE GROVE,,,N,1.342403,103.719496
WEST PARK REGENCY,,,N,1.403684,103.86719
KEW GATE,,,N,1.318647,103.949872
CLEMENTI GREEN,,,N,1.313547,103.772215
D'MANOR,,,N,1.352083,103.819836
SUNRISE VILLA,,,N,1.352083,103.819836
SPRINGLEAF GARDEN,,,N,1.397831,103.821793
SENNETT ESTATE,,,N,1.318841,103.938682
TOH ESTATE,,,N,1.365662,103.972893
MACPHERSON GARDEN ESTATE,,,N,1.331138,103.878781
CLOVER PARK,,,N,1.350883,103.844038
PHOENIX HEIGHTS,,,N,1.37699,103.757227
THE CHANCERY RESIDENCE,,,N,1.352083,103.819836
HENRY PARK,,,N,1.315769,103.782661
SIEW LIM PARK,,,N,1.352083,103.819836
WEST COAST GARDENS,,,N,1.310421,103.756634
CHESTNUT RESIDENCES,,,N,1.367602,103.770246
CHARLTON GARDEN,,,N,1.354743,103.881872
D' KENARIS,,,N,1.352083,103.819836
ELIAS TERRACE,,,N,1.37215,103.942103
SPRINGHILL,,,N,1.385751,103.857504
SEMBAWANG GARDENS ARCADE,,,N,1.363707,103.866381
CHUAN VILLAS,,,N,1.353956,103.864227
KELULUT HILL,,,N,1.383944,103.87335
FABER HILLS,,,N,1.320422,103.756435
BURGUNDY HILL,,,N,1.352083,103.819836
WILKINSON 8,,,N,1.303222,103.895988
KEW VALE,,,N,1.318647,103.949872
BELGRAVIA VILLAS,Fairview Developments Pte Ltd,Belgravia Drive,N,1.352083,103.819836
GOLDEN HILL ESTATE,,,N,1.355252,103.861584
SEVEN CRESCENT,,,N,1.300127,103.894021
THE SPRINGFIELD,,,N,1.350658,103.929568
THE GARDENS AT GERALD,,,N,1.352083,103.819836
KEW RESIDENCIA,,,N,1.318437,103.951383
ESTRIVILLAS,,,N,1.352083,103.819836
EAST COAST PARK,,,N,1.300784,103.912187
EAST COAST HILL,,,N,1.305226,103.923256
HILLVIEW GARDEN ESTATE,,,N,1.35764,103.758338
PONGGOL PARK,,,N,1.409323,103.897786
THOMSON RIDGE ESTATE,,,N,1.352528,103.833855
BAN GUAN PARK,,,N,1.352083,103.819836
SWISS CLUB PARK,,,N,1.333405,103.791904
SPRINGWOOD,,,N,1.279048,103.790869
DUNEARN ESTATE,,,N,1.325781,103.808567
CHIP THYE GARDEN,,,N,1.381006,103.838364
SUMMER GARDENS,,,N,1.356529,103.868869
BEDOK PARK,,,N,1.325024,103.914352
LUCKY HILL,,,N,1.317523,103.940811
CHELSEA VILLAGE,,,N,1.31359,103.827431
TAI KENG VILLAS,,,N,1.347203,103.884954
FLORISSA PARK,,,N,1.387103,103.835384
OCEAN 8,,,N,1.248156,103.84186
ENG KONG PARK,,,N,1.334256,103.768333
CHUAN TERRACE,,,N,1.362675,103.867365
LYNNSVILLE 331,,,N,1.352083,103.819836
CASHEW VILLAS,,,N,1.371882,103.767783
CHARLTON 27,Surindipity Pte Ltd,Surin Avenue,N,1.356613,103.881678
THE TENERIFFE,,,N,1.352083,103.819836
CORAL PARK,,,N,1.251993,103.846094
MEDALLION,,,N,1.352083,103.819836
HAPPY ESTATE,,,N,1.33027,103.88149
THOMSON HILLS ESTATE,,,N,1.378574,103.831872
MANILA GARDENS,,,N,1.299077,103.853998
OASIS @ MULBERRY,,,N,1.352083,103.819836
APOLLO GARDENS,,,N,1.352083,103.819836
MOUNT SINAI,,,N,1.315409,103.778484
RAYA GARDEN,,,N,1.352083,103.819836
BEAUTY GARDEN,,,N,1.361716,103.748738
CHENG SOON GARDEN,,,N,1.334601,103.772287
MAYFAIR PARK,,,N,1.352083,103.819836
MARLENE VILLE,,,N,1.352083,103.819836
KINGSFORD WATERBAY,Kingsford Property Development Pte Ltd,Upper Serangoon View,N,1.352083,103.819836
ENG AUN PARK,,,N,1.352083,103.819836
MISTRAL PARK,,,N,1.339155,103.955634
DALLA VALE,,,N,1.400552,103.823633
ILLOURA,,,N,1.352083,103.819836
KINGSVILLE,,,N,1.352083,103.819836
TRUSSVILLE,,,N,1.352083,103.819836
SUMMER GROVE,,,N,1.356529,103.868869
EDEN PARK,,,N,1.344895,103.871733
EASTWOOD WALK GARDENS,,,N,1.322498,103.956741
EASTWOOD PARK,,,N,1.321395,103.956048
GEYLANG CONSERVATION AREA,,,N,1.352083,103.819836
THE BERTHSIDE,,,N,1.352083,103.819836
KIMNAN PARK,,,N,1.352083,103.819836
ST NICHOLAS VIEW,,,N,1.373296,103.832776
SANTA TERRACES,,,N,1.352083,103.819836
VILLA BEGONIA,,,N,1.352083,103.819836
KALEIDO,Amerald Land (TKLK) Pte Ltd,Lorong K Telok Kurau,N,1.352083,103.819836
CHUAN VISTA,,,N,1.360459,103.866841
YONG SENG ESTATE,,,N,1.33413,103.721449
CENTURY WOODS,,,N,1.352083,103.819836
PAYA LEBAR GARDENS,,,N,1.324012,103.890834
SUMMER VILLAS,,,N,1.387188,103.877839
GROVE RESIDENCE,,,N,1.352083,103.819836
VILLAS SIX,,,N,1.367636,103.87694
ALWYN PARK,,,N,1.352083,103.819836
VILLA PONDER ROSA,,,N,1.352083,103.819836
AVANT PARC,,,N,1.352083,103.819836
DEDAP GARDENS,,,N,1.388196,103.865338
HOCK SWEE HILL,,,N,1.285508,103.839063
HOLLAND GROVE,,,N,1.313155,103.780517
THE SILVER SPURZ,,,N,1.352083,103.819836
HOLLAND GARDENS,,,N,1.313005,103.797956
LOTUS VILLE,JVA LTK Pte Ltd,Lorong L Telok Kurau,N,1.352083,103.819836
CHARLTON VILLAS,,,N,1.354743,103.881872
CACTUS BLOOM,,,N,1.352083,103.819836
AVENUE VILLAS,,,N,1.368006,103.877973
GAMBIER COURT,,,N,1.352083,103.819836
HORIZON GARDENS,,,N,1.376844,103.83484
TANAH MERAH GREEN,,,N,1.32564,103.972212
GALLOP PARK,,,N,1.318429,103.81221
MANDAI GARDEN,,,N,1.411853,103.786395
MERA GARDENS,,,N,1.352083,103.819836
WOLSKEL LODGE,,,N,1.352083,103.819836
HONG KONG PARK,,,N,1.287272,103.847862
PAVILION PARK (PHASE 2),,,N,1.352083,103.819836
BLOSSOM GARDENS,,,N,1.344935,103.876443
MING PARK,,,N,1.319677,103.788405
STRAITS GARDENS,,,N,1.279755,103.853602
WELLINGTON PARK,,,N,1.452661,103.821818
MANDARIN PARK,,,N,1.352083,103.819836
RESERVOIR VILLAS,,,N,1.341011,103.832706
GARLICK VILLE,,,N,1.325515,103.792828
NAMLY COURT,,,N,1.326563,103.797844
ISLAND COUNTRY VILLAS,,,N,1.25882,103.815038
FORTUNE VIEW,,,N,1.352083,103.819836
HAZEL PARK TERRACE,,,N,1.371722,103.764282
TAI HWAN PARK,,,N,1.356208,103.860442
LE ROYCE @ LEITH PARK,,,N,1.362117,103.874117
CANARY PARK,,,N,1.352083,103.819836
MOUNT ECHO PARK,,,N,1.295981,103.82035
ATELIER VILLAS,,,N,1.352083,103.819836
EASTWOOD VILLE,,,N,1.352083,103.819836
MIMOSA VALE,,,N,1.382821,103.860185
GOODMAN CREST,,,N,1.304403,103.890254
WATERFRONT @ FABER,World Class Land Pte Ltd,Faber Walk,N,1.352083,103.819836
BEDOK PESARI,,,N,1.32433,103.954441
FULTON HILL,,,N,1.361841,103.833748
WOODLANDS PARK,,,N,1.438192,103.78896
PEAKVILLE PARK,,,N,1.332687,103.945169
GREENRIDGE,,,N,1.334287,103.765934
MERA TERRACE,,,N,1.347449,103.963994
CHWEE CHIAN VIEW,,,N,1.279831,103.788182
LANDED HOUSING DEVELOPMENT,,,N,1.352083,103.819836
MILFORD VILLAS,,,N,1.352083,103.819836
THOMSON RISE ESTATE,,,N,1.327496,103.841345
MIMOSA VILLAS,,,N,1.384124,103.862119
BEECHWOOD TERRACE,,,N,1.427053,103.778478
SELETAR GARDEN,,,N,1.407095,103.884384
SUNCOTTAGES,,,N,1.3721,103.768981
THE GLENCAIRD RESIDENCES,,,N,1.352083,103.819836
ARDISIA GARDEN,,,N,1.347739,103.877548
SARACA VILLAS,,,N,1.383773,103.858914
GOLDENHILL VILLAS,,,N,1.352083,103.819836
ROSIE VIEW,,,N,1.322844,103.835245
HOOVER PARK,,,N,1.344207,103.772752
VERDANA VILLAS,,,N,1.352083,103.819836
CALDECOTT HILL ESTATE,,,N,1.33895,103.8312
ISLAND PARK,,,N,1.409295,103.92165
SIN CHUAN GARDEN,,,N,1.352083,103.819836
SENG YONG VILLAS,,,N,1.352083,103.819836
FORTUNA HILL,,,N,1.352083,103.819836
WATER TERRACE,,,N,1.354079,103.697939
VENTANA VILLAS,,,N,1.352083,103.819836
THE CLEMENTVALE,,,N,1.352083,103.819836
GAMBIR GARDENS,,,N,1.344195,103.874313
LENTOR VIEW,,,N,1.395534,103.832025
RIVERTREES RESIDENCES,Watervine Homes Pte Ltd,Fernvale Close,N,1.352083,103.819836
GERALD RESIDENCE,,,N,1.352083,103.819836
SOVEREIGN @ SIMON,,,N,1.352083,103.819836
EATON PARK,,,N,1.38829,103.877328
BUKIT VILLAS,,,N,1.416438,103.754764
WEST SEA GARDENS,,,N,1.305377,103.907212
THE ARECA,,,N,1.33924,103.88424
YUNNAN GARDENS,,,N,1.338575,103.692206
PARRY GREEN,,,N,1.364375,103.878378
BINJAI CREST,,,N,1.343054,103.786989
TERESA 8,,,N,1.276506,103.825755
WEST POINT PEARL GARDEN,,,N,1.283559,103.841274
LUXUS HILLS (PH 6),,,N,1.352083,103.819836
THOMSON PARK,,,N,1.35431,103.834352
SURIN GARDENS,,,N,1.356388,103.884264
VICTORY VILLE,,,N,1.352083,103.819836
SOMMERVILLE REGENCY,,,N,1.352083,103.819836
CHESTNUT GARDENS,,,N,1.36919,103.768577
KINGSFORD TERRACE,,,N,1.352083,103.819836
MARINE GARDEN,,,N,1.304968,103.916227
SEASIDE PARK,,,N,1.352083,103.819836
PALMS @ SIXTH AVENUE,,,N,1.324384,103.792254
MELODY VILLAS,,,N,1.352083,103.819836
LANGE 28,,,N,1.359003,103.877412
8 @ STRATTON,,,N,1.381058,103.867326
SIGLAP PARK,,,N,1.310857,103.916846
MAYFLOWER GARDENS,,,N,1.371821,103.839549
SARACA GARDENS,,,N,1.385429,103.863628
CASHEW ESTATE,,,N,1.371882,103.767783
BARKER VILLE,,,N,1.352083,103.819836
QUEEN ASTRID PARK,,,N,1.318374,103.790669
FENGLI GARDENS,,,N,1.352083,103.819836
ISLAND GARDENS,,,N,1.362202,103.829647
HIGH PARK RESIDENCES,Fernvale Development Pte Ltd,Fernvale Road,N,1.352083,103.819836
GOODWOOD GRAND,Feature (Balmoral) Pte Ltd,Balmoral Road,N,1.352083,103.819836
PRINCETON VALE,,,N,1.352083,103.819836
GREEN PARK,,,N,1.347895,103.788828
DUCHESS GARDEN,,,N,1.323288,103.807159
COUNTRYVIEW,,,N,1.388529,103.840544
SIGLAP HILL 33,,,N,1.320259,103.918876
YIO CHU KANG TERRACE,,,N,1.358999,103.875329
JC VILLE,,,N,1.352083,103.819836
THE TOP RESIDENCE,,,N,1.352083,103.819836
GARDEN VIEW ESTATE,,,N,1.35764,103.758338
PINEWOOD TERRACE,,,N,1.428243,103.780078
RESIDENCE 8,,,N,1.316056,103.890896
RAINTREE VALLEY,,,N,1.352083,103.819836
SARINA PARK,,,N,1.31963,103.907758
LENTOR VILLAS,,,N,1.395534,103.832025
FABER GARDEN,,,N,1.352083,103.819836
VALVISTA,,,N,1.352083,103.819836
CAMELIA PARK,,,N,1.352083,103.819836
CHUAN VALE,,,N,1.353956,103.864227
TIVOLI GARDENS,,,N,1.352083,103.819836
GREENWOOD MEWS,Golden Development Pte Ltd/Astoria Park Pte Ltd,Greenwood Avenue,N,1.334482,103.805153
PLATINA GARDENS,,,N,1.427523,103.825857
VAUGHAN GARDEN,,,N,1.347276,103.871089
UNIQUE GARDEN,,,N,1.352083,103.819836
CHEOW KENG GARDEN,,,N,1.307389,103.905797
ORCHID VILLAGE,,,N,1.301578,103.838276
CAMWOOD PARK,,,N,1.352083,103.819836
3BHC,,,N,1.352083,103.819836
KEW COTTAGES,,,N,1.318647,103.949872
CLASSICAL TERRACE,,,N,1.344744,103.876492
CHUAN GREEN,,,N,1.353956,103.864227
SIMEI GARDEN,,,N,1.337987,103.949976
CERELIA VISTA,,,N,1.352083,103.819836
JEWEL @ CHUAN HOE,,,N,1.352083,103.819836
CHUAN LOFT,,,N,1.361632,103.866395
BLAIR PLAIN CONSERVATION AREA,,,N,1.352083,103.819836
LUCKY PARK,,,N,1.317523,103.940811
CHARLTON PARK,,,N,1.354743,103.881872
HOCK SENG PARK,,,N,1.352083,103.819836
WESTMONT,,,N,1.352083,103.819836
LAUW AND SONS GARDEN,,,N,1.352083,103.819836
STRATTON PARK,,,N,1.380899,103.866293
BUKIT LOYANG ESTATE,,,N,1.352083,103.819836
HOLLAND GREEN,,,N,1.326015,103.78415
SANDALWOOD,,,N,1.352083,103.819836
GOLDEN CHUAN VILLE,,,N,1.352083,103.819836
FERNHILL COTTAGE,,,N,1.313854,103.824031
CHUAN VISTA II,,,N,1.341351,103.889157
BAROSSA GARDENS,,,N,1.281281,103.784119
YUGI GARDEN,,,N,1.352083,103.819836
CACTUS GREEN,,,N,1.391225,103.850815
THE MONDRIAN,,,N,1.352083,103.819836
EIGHT @ EAST COAST,,,N,1.312705,103.925406
GLASGOW GREEN,,,N,1.36162,103.878666
GRANDIOSO 8,,,N,1.352083,103.819836
HEETON PARK,,,N,1.352083,103.819836
KASARA,,,N,1.352083,103.819836
EASTWOOD GREEN TERRACES,,,N,1.352083,103.819836
LIMAU GROVE,,,N,1.322937,103.951574
JERVOIS VILLE,,,N,1.294922,103.821179
HARVEY RESIDENCES,,,N,1.352083,103.819836
KOVAN REGENCY,,,N,1.352083,103.819836
CHEPSTOW VILLE,,,N,1.352083,103.819836
SUNGROVE,,,N,1.352083,103.819836
VILLAS @ GILSTEAD,,,N,1.317216,103.838846
SURIN VILLAS,,,N,1.356388,103.884264
BARKER TERRACES,,,N,1.352083,103.819836
PARADISE ISLAND,,,N,1.25065,103.843799
SANDY ISLAND,,,N,1.311885,103.893052
MICHAELS' RESIDENCES,B+M Avenue Pte Ltd,Almond Street/Almond Avenue,N,1.352083,103.819836
PALM GROVE REGENCY,,,N,1.352083,103.819836
BARTLEY VILLAS,,,N,1.345106,103.878063
SUMMERLEA GREEN,,,N,1.352083,103.819836
MUN WAH GARDEN,,,N,1.352083,103.819836
LOWLAND TERRACE,,,N,1.361446,103.883249
ELEVEN @ HOLLAND,,,N,1.308714,103.793108
SPRINGLEAF VILLAS,,,N,1.397423,103.822168
CHUAN GARDEN,,,N,1.363048,103.868319
LLYN GARDENS,,,N,1.352083,103.819836
LEITH PARK,,,N,1.362117,103.874117
WEST SHORE RESIDENCES,,,N,1.352083,103.819836
RACE COURSE RD/OWEN RD CON AREA,,,N,1.352083,103.819836
CHATEAU LA SALLE,,,N,1.352083,103.819836
GOODLINK PARK,,,N,1.426335,103.825402
HENLEY GARDENS,,,N,1.352083,103.819836
DUNSFOLD RESIDENCES,,,N,1.352083,103.819836
ENGLISH VILLAS,,,N,1.32717,103.949922
ALLSWORTH PARK,,,N,1.352083,103.819836
HAUS@SERANGOON GARDEN,Sparkland Holdings Pte Ltd,Serangoon Garden Drive/Place/Rise/Close/Terrace,N,1.363707,103.866381
THOMSON HILLS,,,N,1.378574,103.831872
NORTHSHORE BUNGALOWS,,,N,1.352083,103.819836
BARKER 9,,,N,1.319801,103.833941
TUAN SING PARK,,,N,1.352083,103.819836
TATIANA TERRACE,,,N,1.352083,103.819836
CHANGI GROVE,,,N,1.318358,103.908854
GENTLE REFLECTIONS,,,N,1.352083,103.819836
LA QUINTA PARK,,,N,1.352083,103.819836
LEGEND @ JANSEN,,,N,1.352083,103.819836
THE FORD @ HOLLAND,,,N,1.312866,103.794086
BARTLEY RISE ESTATE,,,N,1.343714,103.87802
BOUTIQUE @ KOVAN,,,N,1.352083,103.819836
PALM TREE NINES,,,N,1.320445,103.952588
GREENBANK PARK,,,N,1.347895,103.788828
D' SILVA TERRACE,,,N,1.365466,103.882156
TEMBELING TERRACES,,,N,1.352083,103.819836
LILAC PARK,,,N,1.381825,103.862152
LOYANG GROVE,,,N,1.372122,103.972845
FERNWOOD TERRACE,,,N,1.309664,103.924605
GUAN SOON TERRACE,,,N,1.337883,103.953621
GUAN SOON VILLAS,,,N,1.337883,103.953621
SARINA TERRACE,,,N,1.31963,103.907758
TEMBELING VILLAS,,,N,1.310531,103.902828
CHUAN VILLE,,,N,1.361889,103.866865
MIMOSA GARDENS,,,N,1.384124,103.862119
D'BELLA TERRACE,,,N,1.363894,103.885843
LYNWOOD EIGHT,,,N,1.345046,103.862988
GAO MIN HUA YUAN,,,N,1.352083,103.819836
DUKE'S GARDEN,,,N,1.322997,103.812336
WOODGROVE ESTATE,,,N,1.427674,103.780691
UNIVERSITY PARK,,,N,1.324149,103.817643
KIM LIN PARK,,,N,1.328683,103.906971
FOH PIN GARDEN,,,N,1.352083,103.819836
CHANCERY HILL VILLAS,Distinct Home (Chancery) Pte Ltd,Chancery Hill Road,N,1.324013,103.839063
SPRINGDEW TERRACE,,,N,1.352083,103.819836
NANYANG PARK,,,N,1.350597,103.685774
SEA BREEZE TERRACE,,,N,1.337471,103.95271
PRINCESS OF WALES PARK,,,N,1.323369,103.80813
JADE VINE GARDENS,,,N,1.352083,103.819836
GREEN SPRINGS,,,N,1.281169,103.84362
DA SILVA VILLAS,,,N,1.364192,103.883025
COTSWOLD VILLAS,,,N,1.347478,103.861532
GRYPHON TERRACE,,,N,1.352083,103.819836
LOYANG GREEN,,,N,1.372122,103.972845
WESTPEAK TERRACE,,,N,1.352083,103.819836
PICARDY GARDENS,,,N,1.333945,103.948884
SELETAR VIEW,Sun Fong Land Pte Ltd,Seletar Hills Drive,N,1.411907,103.870067
BRIZAY PARK,,,N,1.331315,103.786828
SEMBAWANG SQUARE ESTATE,,,N,1.432256,103.826753
TREVOSE 12,,,N,1.323255,103.821001
FARRER GARDENS,,,N,1.317494,103.807725
GPL TERRACE,,,N,1.352083,103.819836
KING'S 8,,,N,1.32279,103.810343
DUBLIN LODGE,,,N,1.352083,103.819836
CENTURION RESIDENCES,,,N,1.352083,103.819836
SANDERIANA,,,N,1.352083,103.819836
SOMMERVILLE RESIDENCES,,,N,1.352083,103.819836
VILLAS LA VUE,,,N,1.352083,103.819836
SERENADE GARDENS,,,N,1.379386,103.834679
MONTCLAIR @ WHITLEY,,,N,1.352083,103.819836
ONE CHILTERN,,,N,1.348479,103.860974
GERALD GARDENS,,,N,1.38419,103.877335
LORNIE 18,,,N,1.338374,103.819717
KILBURN ESTATE,,,N,1.352083,103.819836
THE MORNING DEW,,,N,1.352083,103.819836
DUNSFOLD 18,,,N,1.347269,103.860749
MCMAHON PARK,,,N,1.352083,103.819836
SERANGOON GARDEN VIEW,,,N,1.363707,103.866381
HIGHLAND RESIDENCES,,,N,1.352083,103.819836
CASA FIDELIO,,,N,1.352083,103.819836
DRAGON VIEW PARK,,,N,1.352083,103.819836
LA SALLE VILLAS,,,N,1.318588,103.919125
MOSELLA,,,N,1.352083,103.819836
LINK RESIDENCE @ HOLLAND,,,N,1.352083,103.819836
SIGLAP GARDEN,,,N,1.311689,103.925149
SHEPHERD'S HILL ESTATE,,,N,1.291716,103.806552
MONT TIMAH,,,N,1.314532,103.785042
HERITAGE 9,,,N,1.324022,103.845493
BREEZEWAYS,,,N,1.352083,103.819836
COASTAL VILLAS,,,N,1.305226,103.923256
CAIFU VIEW,,,N,1.352083,103.819836
RIA TOWNHOUSES,,,N,1.276528,103.792592
FORTUNA GARDENS,,,N,1.352083,103.819836
THE SHORELINE RESIDENCES II,,,N,1.352083,103.819836
ENG KONG GREEN,,,N,1.335627,103.76963
BELLAVILLE,,,N,1.352083,103.819836
THE SHORELINE RESIDENCES I,,,N,1.352083,103.819836
WESTSIDE 33,,,N,1.352083,103.819836
GOVT CO0OP HOUSING ESTATE,,,N,1.352083,103.819836
ASTON GREEN,,,N,1.352083,103.819836
HAPPY PARK,,,N,1.375896,103.832404
BEDOKVILLE,,,N,1.326638,103.951137
BANYAN VILLAS,,,N,1.388289,103.838717
GEYLANG HERITAGE,,,N,1.313144,103.887505
THE HILLOFT,,,N,1.352083,103.819836
HUIT,,,N,1.352083,103.819836
GRACE PARK,,,N,1.357482,103.869683
FLORENCE GROVE,,,N,1.361802,103.886077
SANDILANDS RESIDENCES,,,N,1.352083,103.819836
TUDOR TEN,,,N,1.326669,103.820062
CARMINE COLLECTION,,,N,1.352083,103.819836
EASTREES,,,N,1.352083,103.819836
LORNIE GARDENS,,,N,1.34106,103.828629
SEAVIEW PARK,,,N,1.300277,103.896426
THE WOODS,,,N,1.351266,103.698472
MAYFLOWER VILLE,,,N,1.352083,103.819836
THE SILVA GARDENS,,,N,1.364106,103.883266
EASTWOOD GARDENS,,,N,1.321395,103.956048
BENA PARK,,,N,1.354152,103.969028
BINJAI PARK,,,N,1.339519,103.787636
DAISY PARK,,,N,1.344158,103.867378
SPRINGBROOK TERRACE,,,N,1.352083,103.819836
CHISELHURST GREEN,,,N,1.358161,103.865782
SILAHIS VILLE,,,N,1.323665,103.909784
KEW GROVE,,,N,1.318647,103.949872
RESIDENCES @ STANGEE,,,N,1.352083,103.819836
INGGU 6,,,N,1.460895,103.838589
NEW SOO CHOW GARDENS,,,N,1.353878,103.831226
MARGATE TERRACE,,,N,1.298021,103.88863
POH HUAT GARDENS,,,N,1.36653,103.882246
PINE VILLAS,,,N,1.308108,103.882958
WASHINGTONIA VILLA,,,N,1.352083,103.819836
PALM GROVE TERRACE,,,N,1.360457,103.879502
VILLAS AT KEW,,,N,1.352083,103.819836
CHUAN SEVEN,,,N,1.359457,103.867808
RIDGEVALE GARDENS,,,N,1.352083,103.819836
CHESTER PARK,,,N,1.366584,103.864022
REBECCA PARK,,,N,1.320788,103.800737
TANAH MERAH PARK,,,N,1.32564,103.972212
TAI PENG GARDENS,,,N,1.282372,103.831091
DUCHESS PLACE,,,N,1.324986,103.802075
EAST VIEW PARK,,,N,1.359532,103.763823
RICHMOND VILLE,,,N,1.352083,103.819836
HILLSGROVE,Sun Fong Realty Pte Ltd,Hillside Drive,N,1.352083,103.819836
RESIDENCES @ NOVENA,,,N,1.32287,103.842879
SUMMIT VILLE,,,N,1.352083,103.819836
CHARLTON RESIDENCES,,,N,1.352083,103.819836
LUSHAN GARDEN,,,N,1.352083,103.819836
EVERGREEN GARDEN,,,N,1.315132,103.934549
8 ON CHUAN,,,N,1.352083,103.819836
BOON GARDENS,,,N,1.344318,103.72704
THE WESTRIDGE,,,N,1.277595,103.790194
DAISY PETALS,,,N,1.352083,103.819836
MIMOSA PARK,,,N,1.384262,103.862884
CAIRNHILL CONSERVATION AREA,,,N,1.352083,103.819836
WHITLEY VILLAS,,,N,1.327113,103.840575
REGINA HILL,,,N,1.352083,103.819836
D'ELIAS,,,N,1.352083,103.819836
VICTORIA PARK,,,N,1.320218,103.802953
ALLAMANDA GROVE,,,N,1.322709,103.794021
CLYDESCOVE,,,N,1.352083,103.819836
CASA NALLUR,,,N,1.352083,103.819836
LA BELLE,,,N,1.351639,103.874416
KEW PLACE,,,N,1.318647,103.949872
MIRAMAR GARDENS,,,N,1.352083,103.819836
THE PRESTIGE COLLECTION,,,N,1.352083,103.819836
GOLDLEAF GARDENS,,,N,1.352083,103.819836
HAI SING PARK,,,N,1.365769,103.893446
HARVEY VIEW,,,N,1.339591,103.953953
ZEPHYR PARK,,,N,1.352083,103.819836
LOWLAND VIEW,,,N,1.361446,103.883249
HAPPY GARDENS,,,N,1.33027,103.88149
GREENWOOD VILLAS,,,N,1.334482,103.805153
BRIGHT GARDEN,,,N,1.362,103.835491
HUA GUAN GARDENS,,,N,1.337919,103.785202
TUDOR VIEW,,,N,1.326881,103.819715
LAKEVIEW GARDENS,,,N,1.348667,103.835485
SPRINGLEAF GREEN,,,N,1.400473,103.824643
PHILLIPS RESIDENCE,,,N,1.352083,103.819836
PROSPER GARDENS,,,N,1.352083,103.819836
SENG HUA GARDENS,,,N,1.337919,103.785202
EWART PARK,,,N,1.32392,103.783901
SERANGOON GARDEN PARK,,,N,1.363707,103.866381
NORTHILL,,,N,1.464933,103.82636
RESIDENCES @ LIMAU,,,N,1.352083,103.819836
SIMON TERRACE,,,N,1.364812,103.88375
ROBIN VILLAGE,,,N,1.316617,103.827788
SEASONS VIEW,,,N,1.352215,103.840878
NORTH PARK RESIDENCES,North Gem Development Pte Ltd/FC North Gem Trustee Pte Ltd,Yishun Central 1,N,1.464933,103.82636
SIMS URBAN OASIS,Sims Urban Oasis Pte Ltd,Sims Drive,N,1.352083,103.819836
THE LAKESHORE,,,N,1.249552,103.83771
EASTPOINT GREEN,,,N,1.352083,103.819836
BOTANIQUE AT BARTLEY,UOL Development (Bartley) Pte Ltd,Upper Paya Lebar Road,N,1.352083,103.819836
BOTANIC GARDENS MANSION,,,N,1.352083,103.819836
ROBERTSON 100,,,N,1.291378,103.838073
LAKEVILLE,MCL Land (Prestige) Pte Ltd,Jurong Lake Link,N,1.352083,103.819836
THE TRILINQ,Clementi Development Pte Ltd,Jalan Lempeng,N,1.352083,103.819836
EMERALD PARK,,,N,1.302076,103.838516
SOPHIA HILLS,Hoi Hup Sunway Mount Sophia Pte Ltd,Mount Sophia,N,1.352083,103.819836
THE WOODGROVE,,,N,1.352083,103.819836
E0SPACE,,,N,1.352083,103.819836
LE WILKIE,,,N,1.352083,103.819836
COCO PALMS,Hong Realty Pte Ltd,Pasir Ris Grove,N,1.352083,103.819836
KERRISDALE,,,N,1.313279,103.85796
THE STELLAR,,,N,1.352083,103.819836
THE QUINN,Bartley Homes Pte Ltd,Bartley Road,N,1.352083,103.819836
NEWTON 21,,,N,1.314716,103.840685
THE PANORAMA,Pinehill Investments Pte Ltd,Ang Mo Kio Avenue 2,N,1.28299,103.848511
ROSALIA PARK,,,N,1.352083,103.819836
TRIBECA,,,N,1.291079,103.834533
JADE RESIDENCES,Roxy Residential Pte Ltd,Lew Lian Vale,N,1.352083,103.819836
NEEM TREE,Aylesbury Pte Ltd,Jalan Kemaman,N,1.352083,103.819836
CHILTERN PARK,,,N,1.348935,103.863468
SOPHIA RESIDENCE,,,N,1.352083,103.819836
VERSAILLES,,,N,1.312008,103.890357
LEGENDA AT JOO CHIAT,,,N,1.352083,103.819836
THE SORRENTO,,,N,1.352083,103.819836
SUFFOLK PREMIER,,,N,1.352083,103.819836
SEVENTY SAINT PATRICK'S,UOL Development (St Patrick) Pte Ltd,St. Patrick's Road,N,1.352083,103.819836
TRILIVE,RH Tampines Pte Ltd,Tampines Road,N,1.352083,103.819836
AQUARIUS BY THE PARK,,,N,1.352083,103.819836
RESIDENCES @ KILLINEY,,,N,1.352083,103.819836
VIENTO,,,N,1.352083,103.819836
CITIGATE RESIDENCE,,,N,1.352083,103.819836
ECO SANCTUARY,S P Setia International (S) Pte Ltd,Chestnut Avenue,N,1.352083,103.819836
SYMPHONY SUITES,EL Development (Yishun) Pte Ltd,Yishun Close,N,1.352083,103.819836
THE MAYFAIR,,,N,1.352083,103.819836
CLUNY PARK RESIDENCE,Shelford Properties Pte Ltd,Cluny Park Road,N,1.352083,103.819836
FORTUNE JADE,,,N,1.352083,103.819836
COMMONWEALTH TOWERS,Wealthall Development Pte Ltd,Commonwealth Avenue,N,1.352083,103.819836
SHERWOOD CONDOMINIUM,,,N,1.352083,103.819836
THE SANCTUARY @ GEYLANG,1L30G Pte Ltd,Lorong 30 Geylang,N,1.320054,103.891775
ASTOR GREEN,,,N,1.352083,103.819836
VUE 8 RESIDENCE,Publique Realty (Pasir Ris) Pte Ltd,Pasir Ris Heights,N,1.352083,103.819836
DUCHESS CREST,,,N,1.323288,103.807159
LION TOWERS,,,N,1.316578,103.845309
REZI 3TWO,Development 32 Pte Ltd,Lorong 32 Geylang,N,1.352083,103.819836
SKIES MILTONIA,TG Master Pte Ltd,Miltonia Close,N,1.352083,103.819836
91 MARSHALL,,,N,1.306552,103.901119
D'LOTUS,,,N,1.326176,103.853537
JEWEL @ BUANGKOK,White Haven Properties Pte Ltd,Compassvale Bow,N,1.352083,103.819836
THE METROPOLITAN CONDOMINIUM,,,N,1.352083,103.819836
FLORAVIEW,Oxley YCK Pte Ltd,Ang Mo Kio Street 66,N,1.357133,103.965079
GRANDEUR 8,,,N,1.352083,103.819836
EVERGREEN VIEW,,,N,1.315132,103.934549
EUNOS MANSION,,,N,1.329867,103.905612
HILLSIDE MANSIONS,,,N,1.358464,103.877311
THE ARISTO @ AMBER,AG Capital Pte Ltd,Amber Road,N,1.352083,103.819836
E MAISON,Global Star Development Pte Ltd,Braddell Road,N,1.352083,103.819836
R MAISON,Global Star Development Pte Ltd,Sommerville Walk,N,1.352083,103.819836
HARBOUR VIEW TOWERS,,,N,1.264822,103.818219
PEOPLE'S PARK CENTRE,,,N,1.352083,103.819836
GAIA,,,N,1.327875,103.843727
# 1 SUITES,The One Development Pte Ltd,Lorong 20 Geylang,N,1.303808,103.838337
THE IMPERIAL,,,N,1.352083,103.819836
FABER GARDEN CONDOMINIUM,,,N,1.352083,103.819836
SUITES @ SHREWSBURY,,,N,1.352083,103.819836
ESTELLA GARDENS,,,N,1.352083,103.819836
PARC MONDRIAN,,,N,1.352083,103.819836
THE ACACIAS,,,N,1.352083,103.819836
KATONG PARK TOWERS,,,N,1.299665,103.888135
V ON SHENTON,UIC Investments (Properties) Pte Ltd,Shenton Way,N,1.277908,103.84966
TREASURE LOFT,,,N,1.352083,103.819836
CUSCADEN ROYALE,,,N,1.352083,103.819836
NIM GARDENS,,,N,1.38265,103.863797
WATTEN HILL,,,N,1.32863,103.809368
ONE TREE HILL RESIDENCE,,,N,1.352083,103.819836
THE EDGE ON CAIRNHILL,,,N,1.352083,103.819836
ALEX RESIDENCES,Singland Homes (Alexandra) Pte Ltd,Alexandra View,N,1.352083,103.819836
MAYFAIR GARDENS,,,N,1.352083,103.819836
TANAH MERAH MANSION,,,N,1.352083,103.819836
EAST VIEW,,,N,1.359532,103.763823
MEDGE,,,N,1.352083,103.819836
VIDA,,,N,1.308895,103.838905
111 EMERALD HILL,,,N,1.305099,103.839199
ST PATRICK'S GREEN,,,N,1.352083,103.819836
WING FONG COURT,,,N,1.311324,103.879321
EUPHONY GARDENS,,,N,1.352083,103.819836
PARC VISTA,,,N,1.277721,103.850878
BAYVILLE CONDOMINIUM,,,N,1.352083,103.819836
NINETEEN SHELFORD ROAD,,,N,1.32667,103.811642
CASA ESPANIA,,,N,1.352083,103.819836
THE TENNERY,,,N,1.352083,103.819836
STARLIGHT SUITES,,,N,1.352083,103.819836
DUNEARN GARDENS,,,N,1.325781,103.808567
WILKIE 80,,,N,1.303097,103.847674
THE MAYLEA,,,N,1.352083,103.819836
PALISADES,,,N,1.286893,103.779765
SPRING GROVE,,,N,1.281169,103.84362
RESIDENCES AT 338A,,,N,1.24951,103.824412
ORCHID PARK CONDOMINIUM,,,N,1.412497,103.835257
AXIS @ SIGLAP,,,N,1.352083,103.819836
REGENT GROVE,,,N,1.403684,103.86719
RICCHEZZA,,,N,1.352083,103.819836
BURLINGTON SQUARE,,,N,1.301382,103.852526
PARADISE PALMS,,,N,1.352083,103.819836
FABER CREST,,,N,1.318825,103.758783
DORSETT RESIDENCES,,,N,1.280019,103.840502
RIVERBANK @ FERNVALE,UOL Development (Sengkang) Pte Ltd,Fernvale Close,N,1.352083,103.819836
SPRINGDALE CONDOMINIUM,,,N,1.352083,103.819836
EVANIA,,,N,1.352083,103.819836
TANGLIN REGENCY,,,N,1.291856,103.816299
VIVA VISTA,Hume Homes Pte Ltd,South Buona Vista Road,N,1.352083,103.819836
SPRINGVALE,,,N,1.312505,103.925025
ONE0NORTH RESIDENCES,,,N,1.314847,103.90529
IVORY HEIGHTS,,,N,1.352083,103.819836
THE SPRINGBLOOM,,,N,1.352083,103.819836
DONG XING COURT,,,N,1.312612,103.929412
THE MEDLEY,,,N,1.352083,103.819836
WESTCOVE CONDOMINIUM,,,N,1.352083,103.819836
REGENT HEIGHTS,,,N,1.352083,103.819836
ESTERINA,,,N,1.352083,103.819836
THE VENUE RESIDENCES,Crescent View Developments Pte Ltd,Tai Thong Crescent,N,1.352083,103.819836
HALLMARK RESIDENCES,,,N,1.352083,103.819836
PARK WEST,,,N,1.317377,103.759679
LAKEVIEW ESTATE,,,N,1.348704,103.83485
KEW GREEN,,,N,1.318647,103.949872
SIMS RESIDENCES,,,N,1.316056,103.890896
CENTRA SUITES,,,N,1.352083,103.819836
SUNFLOWER REGENCY,,,N,1.352083,103.819836
28 RC SUITES,Sysma Properties Pte Ltd,Race Course Lane,N,1.352083,103.819836
VENTURA VIEW,,,N,1.352083,103.819836
8M RESIDENCES,Gcap Properties Pte Ltd,Margate Road,N,1.299179,103.888673
PANDAN VALLEY,,,N,1.319483,103.778182
SINGA HILLS,Ecco Development Pte Ltd,Jalan Singa,N,1.352083,103.819836
GLORIA MANSION,,,N,1.286548,103.780003
REGAL 35,,,N,1.315411,103.88842
GUILIN VIEW,,,N,1.352083,103.819836
EAST GROVE,,,N,1.313306,103.783781
EUNOSVILLE,,,N,1.352083,103.819836
REGENTVILLE,,,N,1.352083,103.819836
D'NEST,,,N,1.352083,103.819836
CHAPEL COURT,,,N,1.305445,103.907289
STARS OF KOVAN,Kovan Treasure Pte Ltd,Upper Serangoon Road,N,1.352083,103.819836
THE POIZ RESIDENCES,MCC Land (Potong Pasir) Pte Ltd,Meyappa Chettiar Road,N,1.352083,103.819836
KINGSFORD . HILLVIEW PEAK,Kingsford Development Pte Ltd,Hillview Rise,N,1.352083,103.819836
MON JERVOIS,Singland Development (Jervois) Pte Ltd,Jervois Road,N,1.352083,103.819836
THE TEMBUSU,Winsmart Investment Pte Ltd,Tampines Road,N,1.304562,103.899042
HIGHLINE RESIDENCES,Harvestland Development Pte Ltd,Kim Tian Road,N,1.352083,103.819836
PRINCIPAL GARDEN,Secure Venture Development (Alexandra) Pte Ltd,Prince Charles Crescent,N,1.352083,103.819836
SPOTTISWOODE SUITES,Spottiswoode Development Pte Ltd,Spottiswoode Park Road,N,1.352083,103.819836
SKYSUITES@ANSON,,,N,1.27455,103.844674
THE RISE @ OXLEY 0 RESIDENCES,,,N,1.352083,103.819836
TREASURES@G6,Treasures 6 Pte Ltd,Lorong 6 Geylang,N,1.352083,103.819836
STRAITS MANSIONS,Roxy Capital Pte Ltd,Sea Avenue,N,1.285112,103.829279
CITY LOFT,,,N,1.352083,103.819836
STURDEE RESIDENCES,SL Capital (1) Pte Ltd,Beatty Road,N,1.352083,103.819836
THE SOLITAIRE,,,N,1.352083,103.819836
EMERALD GARDEN,,,N,1.302076,103.838516
UNIT 8,,,N,1.435425,103.804863
8 @ MOUNT SOPHIA,,,N,1.301041,103.845815
CEYLON CREST,,,N,1.308594,103.900655
THOMSON EURO0ASIA,,,N,1.352083,103.819836
CAVENAGH COURT,,,N,1.308289,103.842376
THE TANAMERA,,,N,1.332566,103.942134
ADANA @ THOMSON,Fortune Properties Pte Ltd,Old Upper Thomson Road,N,1.352083,103.819836
THOMSON IMPRESSIONS,NS Property (Thomson) Pte Ltd,Lorong Puntong,N,1.352083,103.819836
THE LINE @ TANJONG RHU,Lakeview Investments Pte Ltd,Tanjong Rhu Road,N,1.352083,103.819836
TRE RESIDENCES,SL-GV-MCC Pte Ltd,Geylang East Avenue 1,N,1.308465,103.82673
SKY VUE,Allamanda Residential Development Pte Ltd,Bishan Street 15,N,1.352083,103.819836
FLORENCE REGENCY,,,N,1.352083,103.819836
BANYAN CONDOMINIUM,,,N,1.352083,103.819836
HILLION RESIDENCES,Sim Lian JV (BP Retail) Pte Ltd/Sim Lian JV (BP) Pte Ltd,Jelebu Road,N,1.352083,103.819836
REGENCY LODGE,,,N,1.352083,103.819836
TAMPINES COURT,,,N,1.368496,103.910044
THE NASSIM,,,N,1.311655,103.821796
RITZ REGENCY,,,N,1.352083,103.819836
SHERWOOD TOWER,,,N,1.339455,103.778918
PARKVIEW ECLAT,,,N,1.352083,103.819836
THE LAKEFRONT RESIDENCES,,,N,1.352083,103.819836
RESIDENCES 88,,,N,1.317829,103.832478
PARBURY HILL CONDOMINIUM,,,N,1.352083,103.819836
THE BELLEFORTE,,,N,1.352083,103.819836
BOTANIC GARDENS VIEW,,,N,1.352083,103.819836
VISIONCREST,,,N,1.352083,103.819836
THE PRINCETON,,,N,1.352083,103.819836
RIA APARTMENTS,,,N,1.276528,103.792592
PASIR PANJANG LODGE,,,N,1.352083,103.819836
WILKIE STUDIO,,,N,1.352083,103.819836
THE TATE RESIDENCES,,,N,1.352083,103.819836
LEEDON 2,,,N,1.31276,103.796622
KISMIS VIEW,,,N,1.337365,103.768293
D'WEAVE,,,N,1.352083,103.819836
THE MILTONIA RESIDENCES,,,N,1.352083,103.819836
TRILIGHT,,,N,1.352083,103.819836
THE CREEK @ BUKIT,Chiu Teng @ Bukit Timah Pte Ltd,Toh Tuck Road,N,1.34779,103.775039
TREVOSE PARK,,,N,1.326136,103.824011
PALM LOFT,,,N,1.352083,103.819836
PEIRCE VIEW,,,N,1.305212,103.807426
THE SILVERTON,,,N,1.352083,103.819836
THE SERENNIA,,,N,1.352083,103.819836
AIRSTREAM,,,N,1.352083,103.819836
THE PIER AT ROBERTSON,,,N,1.352083,103.819836
GEMINI APARTMENTS,,,N,1.317188,103.925192
RIVERSAILS,Benefit Investments Pte Ltd,Upper Serangoon Crescent,N,1.378335,103.902197
APLETON VIEW,,,N,1.352083,103.819836
THE BELMONT,,,N,1.312816,103.798893
THOMSON VIEW CONDOMINIUM,,,N,1.352083,103.819836
76 SHENTON,,,N,1.273445,103.845595
MARINE BLUE,Ladyhill Pte Ltd,Marine Parade Road,N,1.352083,103.819836
THE HILLIER,Transurban Properties Pte Ltd,Hillview Rise,N,1.352083,103.819836
SUITES TWENTY0TWO,,,N,1.352083,103.819836
THE ASANA,Aurum Land Pte Ltd,Queen's Road,N,1.352083,103.819836
HERTFORD MANSION,,,N,1.352083,103.819836
KATONG REGENCY,UOL Property Investments Pte Ltd/UOL Residential Development Pte Ltd,Tanjong Katong Road,N,1.352083,103.819836
LE LOYANG,,,N,1.352083,103.819836
ESCADA VIEW,,,N,1.328933,103.913394
SIMS GREEN,,,N,1.315977,103.887254
YISHUN SAPPHIRE,,,N,1.440037,103.831711
CUSCADEN RESIDENCES,,,N,1.352083,103.819836
REGENT PARK,,,N,1.352083,103.819836
HARVEST MANSIONS,,,N,1.352083,103.819836
BEACON HEIGHTS,,,N,1.352083,103.819836
LUSH ON HOLLAND HILL,,,N,1.310162,103.801655
AMBER PARK,,,N,1.300033,103.900091
ONE OXLEY RISE,,,N,1.299095,103.841614
FLORAVILLE,Oxley YCK Pte Ltd,Cactus Road,N,1.352083,103.819836
ENG HOON MANSIONS,,,N,1.352083,103.819836
HILLS TWOONE,Macly RL Pte Ltd,Hillview Terrace,N,1.352083,103.819836
ARDMORE THREE,,,N,1.308378,103.828571
NOVA 48,,,N,1.352083,103.819836
SUITES@CHANGI,,,N,1.317442,103.904579
VISTA PARK,,,N,1.277721,103.850878
SUITES @ TOPAZ,,,N,1.352083,103.819836
FORT GARDENS,,,N,1.294887,103.885243
QUEENSWAY TOWER,,,N,1.352083,103.819836
FULCRUM,CEL-Fort Pte Ltd,Fort Road,N,1.352083,103.819836
THE MINT RESIDENCES,,,N,1.352083,103.819836
CASHEW HEIGHTS CONDOMINIUM,,,N,1.352083,103.819836
SHEARES VILLE,,,N,1.352083,103.819836
H RESIDENCES,,,N,1.317829,103.832478
EIS RESIDENCES,,,N,1.352083,103.819836
THE ELEGANCE @ CHANGI,,,N,1.34501,103.983209
PALM GALLERIA,,,N,1.352083,103.819836
THE ASTON,,,N,1.296004,103.829913
METRO LOFT,Channel Residences Pte Ltd,Lorong 27 Geylang,N,1.352083,103.819836
CUBIK,,,N,1.352083,103.819836
GRAND DUCHESS AT ST PATRICK'S,,,Y,1.352083,103.819836
CARISSA PARK CONDOMINIUM,,,Y,1.352083,103.819836
PARK INFINIA AT WEE NAM,,,Y,1.352083,103.819836
THE QUAYSIDE,,,Y,1.352083,103.819836
THE SEA VIEW,,,Y,1.300277,103.896426
FAIRMOUNT CONDOMINIUM,,,Y,1.352083,103.819836
THE CASCADIA,,,Y,1.352083,103.819836
FERRELL RESIDENCES,,,Y,1.317829,103.832478
SCOTTS SQUARE,,,Y,1.309786,103.834252
OASIS @ ELIAS,,,Y,1.352083,103.819836
CLIVEDEN AT GRANGE,,,Y,1.299365,103.826799
FOUR SEASONS PARK,,,Y,1.352083,103.819836
CRYSTAL RHU,,,Y,1.352083,103.819836
LAGUNA GREEN,,,Y,1.312615,103.934488
THE LAURELS,,,Y,1.325767,103.791429
GRANGE RESIDENCES,,,Y,1.299839,103.824766
CAVENDISH PARK,,,Y,1.352083,103.819836
CASA CAIRNHILL,,,Y,1.352083,103.819836
THE CLAYMORE,,,Y,1.307809,103.829943
SILVERSEA,,,Y,1.299577,103.902284
THE LEVELZ,,,Y,1.352083,103.819836
CASA CAMBIO,,,Y,1.352083,103.819836
HOLLAND RESIDENCES,,,Y,1.352083,103.819836
WATERFRONT ISLE,FCL Peak Pte Ltd,Bedok Reservoir Road,Y,1.337133,103.9317
ROBERTSON BLUE,,,Y,1.352083,103.819836
KATONG GARDENS,,,Y,1.299473,103.897782
HOLLAND PEAK,,,Y,1.308954,103.801235
OASIS GARDEN,,,Y,1.343667,103.734626
LOYANG VALLEY,,,Y,1.352083,103.819836
THE WARREN,,,Y,1.352083,103.819836
THE PEAK@BALMEG,,,Y,1.283145,103.783339
HILLVISTA,,,Y,1.352083,103.819836
ST REGIS RESIDENCES SINGAPORE,,,Y,1.355379,103.867744
1 MOULMEIN RISE,,,Y,1.319188,103.847179
BUKIT REGENCY,,,Y,1.346855,103.770902
ROSEWOOD SUITES,,,Y,1.352083,103.819836
SKY@ELEVEN,,,Y,1.301013,103.853079
CITY PLAZA,,,Y,1.315189,103.893318
ROCHELLE AT NEWTON,,,Y,1.307552,103.840377
THE CALROSE,,,Y,1.382283,103.836169
SIGNATURE AT LEWIS,,,Y,1.352083,103.819836
THE CHUAN,,,Y,1.353956,103.864227
PALMERA EAST,,,Y,1.352083,103.819836
VOLARI,,,Y,1.352083,103.819836
CHANCERY COURT,,,Y,1.319894,103.837951
IRESIDENCES,,,Y,1.317829,103.832478
ORCHARD SCOTTS,,,Y,1.307145,103.832791
GALLERY 8,,,Y,1.280285,103.856454
BREEZE BY THE EAST,,,Y,1.352083,103.819836
THE LUCENT,,,Y,1.352083,103.819836
SERENITY PARK,,,Y,1.390495,103.859934
NV RESIDENCES,,,Y,1.352083,103.819836
THE INFINITI,,,Y,1.32056,103.754647
THE SUITES AT CENTRAL,,,Y,1.352083,103.819836
ASCENTIA SKY,,,Y,1.352083,103.819836
JARDIN,,,Y,1.31384,103.815914
BARTLEY RESIDENCES,,,Y,1.352083,103.819836
THE LOFT,,,Y,1.311242,103.910223
CENTENNIA SUITES,,,Y,1.293047,103.833566
NEWTON EDGE,,,Y,1.311015,103.880783
THE REGALIA,,,Y,1.295231,103.83687
PARC VERA,,,Y,1.352083,103.819836
THE TRIZON,,,Y,1.352083,103.819836
DUNEARN SUITES,,,Y,1.352083,103.819836
THE EQUATORIAL,,,Y,1.298177,103.888222
PARKSHORE,,,Y,1.352083,103.819836
SOUTHAVEN II,,,Y,1.345825,103.773303
SUITES @ PAYA LEBAR,,,Y,1.307786,103.895483
THE BAYSHORE,,,Y,1.312183,103.93931
IDYLLIC RESIDENCES,,,Y,1.352083,103.819836
POSHGROVE EAST,,,Y,1.352083,103.819836
OCEAN PARK,,,Y,1.247272,103.845011
NORTHWOOD,,,Y,1.352083,103.819836
FORTE SUITES,Forte Development Pte Ltd,Mergui Road,Y,1.352083,103.819836
FORESQUE RESIDENCES,,,Y,1.352083,103.819836
CASAFINA,,,Y,1.31657,103.933343
GRANDE VISTA,,,Y,1.355294,103.94191
INTERNATIONAL PLAZA,,,Y,1.2757,103.84581
Q BAY RESIDENCES,Quarry Bay Pte Ltd,Tampines Street 86,Y,1.352083,103.819836
CHUAN PARK,,,Y,1.353956,103.864227
ONE SHENTON,,,Y,1.279245,103.851064
MEIER SUITES,,,Y,1.298811,103.888191
THE AMERY,,,Y,1.352083,103.819836
OPTIMA @ TANAH MERAH,,,Y,1.352083,103.819836
MARINA BAY RESIDENCES,,,Y,1.280773,103.852724
ADRIA,,,Y,1.352083,103.819836
FREESIA WOODS,,,Y,1.323948,103.767248
ONE LEICESTER,,,Y,1.329771,103.867652
TREE HOUSE,,,Y,1.352083,103.819836
SPOTTISWOODE RESIDENCES,,,Y,1.275416,103.83764
YEWTEE RESIDENCES,,,Y,1.352083,103.819836
ESPA,,,Y,1.352083,103.819836
LAGUNA PARK,,,Y,1.309585,103.929542
CHINATOWN PLAZA,,,Y,1.352083,103.819836
THE CLIFT,,,Y,1.279594,103.847335
CHIVERTON,,,Y,1.352083,103.819836
VISTA RESIDENCES,,,Y,1.352083,103.819836
LUCKY PLAZA,,,Y,1.304565,103.83393
VILLA MARINA,,,Y,1.352083,103.819836
HARBOURLIGHTS,,,Y,1.352083,103.819836
GROSVENOR VIEW,,,Y,1.327656,103.912131
NEWTON 18,,,Y,1.314683,103.841239
NEWTON SUITES,,,Y,1.303808,103.838337
WOODSVILLE 28,,,Y,1.33038,103.868128
NIN RESIDENCE,Qingjian Realty (Serangoon) Pte Ltd,Pheng Geck Avenue,Y,1.352083,103.819836
SENNETT RESIDENCE,Clerodendrum Land Pte Ltd,Pheng Geck Avenue,Y,1.352083,103.819836
HAIG COURT,,,Y,1.30946,103.897723
THE QUARTZ,,,Y,1.352083,103.819836
THE BOUTIQ,,,Y,1.352083,103.819836
RESIDENCES @ EVELYN,,,Y,1.352083,103.819836
SUNVILLE,,,Y,1.352083,103.819836
COUNTRY GRANDEUR,,,Y,1.373772,103.940413
EON SHENTON,70 Shenton Pte Ltd,Shenton Way,Y,1.352083,103.819836
ELIZABETH HEIGHTS,,,Y,1.360677,103.762962
HAZEL PARK CONDOMINIUM,,,Y,1.352083,103.819836
SUNHAVEN,,,Y,1.347761,103.962864
GARDENVILLE,,,Y,1.352083,103.819836
CASUARINA COVE,,,Y,1.375001,103.828087
BUTTERWORTH 8,,,Y,1.312019,103.895453
THE MERASAGA,,,Y,1.352083,103.819836
SIMS DORADO,,,Y,1.352083,103.819836
CYAN,,,Y,1.318146,103.830463
IMPERIAL HEIGHTS,,,Y,1.352083,103.819836
THE VERMONT ON CAIRNHILL,,,Y,1.352083,103.819836
SUITES AT ORCHARD,,,Y,1.304843,103.831824
AMBER POINT,,,Y,1.298839,103.898494
ECOVILLE,,,Y,1.352083,103.819836
MEYER RESIDENCE,,,Y,1.352083,103.819836
ONE FORT,,,Y,1.300196,103.885147
HILLVIEW HEIGHTS,,,Y,1.359532,103.763823
SUNGLADE,,,Y,1.352083,103.819836
TANJONG RIA CONDOMINIUM,,,Y,1.352083,103.819836
CASABELLA,,,Y,1.352083,103.819836
THE INFLORA,Tripartite Developers Pte Ltd,Flora Drive,Y,1.352083,103.819836
AMARYLLIS VILLE,,,Y,1.352083,103.819836
THE BELVEDERE,,,Y,1.297297,103.887539
THOMSON PLAZA,,,Y,1.327496,103.841345
SHELFORD SUITES,,,Y,1.352083,103.819836
HOLT RESIDENCES,,,Y,1.352083,103.819836
THE LINCOLN MODERN,,,Y,1.352083,103.819836
PARC EMILY,,,Y,1.304574,103.84735
8 RODYK,,,Y,1.29059,103.837978
BEVERLY HILL,,,Y,1.352083,103.819836
RIVAGE,,,Y,1.352083,103.819836
CAIRNHILL CREST,,,Y,1.306578,103.837381
MIRO,,,Y,1.313823,103.842633
FERNWOOD TOWERS,,,Y,1.352083,103.819836
AMARANDA GARDENS,,,Y,1.352083,103.819836
THE TRUMPS,,,Y,1.352083,103.819836
DRAYCOTT EIGHT,,,Y,1.308983,103.830434
BALESTIER POINT,,,Y,1.323004,103.852305
VACANZA @ EAST,,,Y,1.352083,103.819836
DALVEY COURT,,,Y,1.314721,103.822772
SEVEN PALMS SENTOSA COVE,,,Y,1.244819,103.841058
THE BLOSSOMVALE,,,Y,1.352083,103.819836
THE SPECTRUM,,,Y,1.352083,103.819836
PAPILLON,,,Y,1.352083,103.819836
PALM SPRING,,,Y,1.352083,103.819836
VERDURE,,,Y,1.352083,103.819836
CUBE 8,,,Y,1.316152,103.755598
THE LINEAR,,,Y,1.375426,103.76286
RV EDGE,,,Y,1.352083,103.819836
NOVENA REGENCY,,,Y,1.294473,103.821964
TIERRA VUE,,,Y,1.352083,103.819836
TERRENE AT BUKIT TIMAH,,,Y,1.329411,103.802078
HOLLAND MEWS,,,Y,1.313005,103.797956
VILLAGE TOWER,,,Y,1.315014,103.777866
WHITEHAVEN,RL West Pte Ltd,Pasir Panjang Road,Y,1.352083,103.819836
CONCOURSE SKYLINE,,,Y,1.352083,103.819836
FLYNN PARK,,,Y,1.352083,103.819836
DUNMAN VIEW,,,Y,1.352083,103.819836
THREE THREE ROBIN,,,Y,1.318658,103.828516
ORANGE GROVE RESIDENCES,,,Y,1.308465,103.82673
OLA RESIDENCES,,,Y,1.352083,103.819836
TANGLIN VIEW,,,Y,1.291914,103.817885
THE REGENCY AT TIONG BAHRU,,,Y,1.352083,103.819836
THE PLAZA,,,Y,1.304565,103.83393
TWIN REGENCY,,,Y,1.284842,103.828487
HUME PARK I,,,Y,1.35704,103.767339
THE VUE,,,Y,1.303331,103.828986
VERTIS,,,Y,1.352083,103.819836
VIVA,,,Y,1.352083,103.819836
THE SIENA,Far East SOHO Pte Ltd,Tan Kim Cheng Road,Y,1.352083,103.819836
THE BENCOOLEN,,,Y,1.301978,103.853386
THE TREVOSE,,,Y,1.326136,103.824011
THOMSON GROVE,,,Y,1.383996,103.83583
GLENTREES,,,Y,1.352083,103.819836
THE WINDSOR,,,Y,1.357389,103.825686
LINCOLN SUITES,,,Y,1.352083,103.819836
PARC IMPERIAL,,,Y,1.352083,103.819836
THOMSON 800,,,Y,1.340534,103.837091
THE ATRIA AT MEYER,,,Y,1.352083,103.819836
AURALIS,,,Y,1.352083,103.819836
D'OASIA,,,Y,1.352083,103.819836
FOOK HAI BUILDING,,,Y,1.352083,103.819836
ST MICHAEL REGENCY,,,Y,1.352083,103.819836
CENTRAL GREEN CONDOMINIUM,,,Y,1.284572,103.827688
BEAUTY WORLD CENTRE,,,Y,1.352083,103.819836
LANDRIDGE CONDOMINIUM,,,Y,1.352083,103.819836
AVILA GARDENS,,,Y,1.360036,103.964913
MOUNT SOPHIA SUITES,,,Y,1.352083,103.819836
BALMORAL HILLS,,,Y,1.352083,103.819836
EASTWOOD REGENCY,,,Y,1.352083,103.819836
JADE MANSION,,,Y,1.352083,103.819836
HILLVIEW PARK,,,Y,1.359532,103.763823
THE BOTANIC ON LLOYD,,,Y,1.352083,103.819836
21 RICHARDS,,,Y,1.361852,103.881691
URBANA,,,Y,1.352083,103.819836
BLISS LOFT,,,Y,1.352083,103.819836
PALMWOODS,,,Y,1.352083,103.819836
THE CLEARWATER,,,Y,1.338118,103.933958
EASTERN LAGOON,,,Y,1.312786,103.933853
PARC ELEGANCE,,,Y,1.352083,103.819836
LAKESIDE APARTMENTS,,,Y,1.336006,103.725663
LEONIE PARC VIEW,,,Y,1.352083,103.819836
GUILLEMARD EDGE,,,Y,1.352083,103.819836
MARTIN NO 38,,,Y,1.292122,103.838
SELETAR PARK RESIDENCE,,,Y,1.352083,103.819836
PAVILION 11,,,Y,1.371005,103.751431
SOMMERVILLE GRANDEUR,,,Y,1.352083,103.819836
MERA SPRINGS,,,Y,1.352083,103.819836
THE ANSLEY,,,Y,1.352083,103.819836
SIXTH AVENUE VILLE,,,Y,1.330161,103.795155
MERA EAST,,,Y,1.347449,103.963994
THE ARCADIA,,,Y,1.335419,103.808946
RIZ HAVEN,,,Y,1.352083,103.819836
THE MERCURY,,,Y,1.295944,103.827241
CASABLANCA,,,Y,1.352083,103.819836
DUCHESS MANOR,,,Y,1.352083,103.819836
STEVENS SUITES,,,Y,1.352083,103.819836
MALVERN SPRINGS,,,Y,1.352083,103.819836
THE VERTE,,,Y,1.304613,103.852001
ASTORIA APARTMENTS,,,Y,1.307049,103.839444
SOUTHAVEN I,,,Y,1.345825,103.773303
BULLION PARK,,,Y,1.392426,103.836473
THE RIVERINE BY THE PARK,,,Y,1.352083,103.819836
DUNMAN PLACE,,,Y,1.309599,103.895257
ORCHARD BEL AIR,,,Y,1.352083,103.819836
CASA ROSA,,,Y,1.352083,103.819836
CAIRNHILL NINE,CH Commercial Pte Ltd/CH Residential Pte Ltd,Cairnhill Road,Y,1.307926,103.839374
KENTISH COURT,,,Y,1.352083,103.819836
THE LADYHILL,,,Y,1.310942,103.823191
BLU CORAL,,,Y,1.352083,103.819836
DAIRY FARM ESTATE,,,Y,1.364845,103.774296
EQUATORIAL APARTMENTS,,,Y,1.298177,103.888222
THREE BALMORAL,Priscious Pte Ltd,Balmoral Road,Y,1.313748,103.830639
SUNNY PALMS,,,Y,1.352083,103.819836
ADAM PARK CONDOMINIUM,,,Y,1.352083,103.819836
STRATFORD COURT,,,Y,1.32824,103.951653
BISHAN POINT,,,Y,1.352237,103.848152
GALLOP GABLES,,,Y,1.352083,103.819836
LANDMARK TOWER,,,Y,1.352083,103.819836
BROOKVALE PARK,,,Y,1.330737,103.768518
WATERTOWN,Emerald Star Pte Ltd/FC Retail Trustee Pte Ltd,Punggol Central,N,1.352083,103.819836
FLO RESIDENCE,Publique Realty Pte Ltd,Punggol Field Walk,N,1.352083,103.819836
NOTTINGHILL SUITES,,,N,1.352083,103.819836
THE PATERSON EDGE,,,N,1.302637,103.829684
SUITES AT BUKIT TIMAH,,,N,1.329411,103.802078
PEACE CENTRE/MANSIONS,,,N,1.352083,103.819836
UE SQUARE,,,N,1.293509,103.842724
DERBY COURT,,,N,1.352083,103.819836
MINBU COURT,,,N,1.324231,103.849249
VIBES @ EAST COAST,,,N,1.352083,103.819836
THE METZ,,,N,1.352083,103.819836
REZI 26,Development 26 Pte Ltd,Lorong 26 Geylang,N,1.352083,103.819836
THOMSON V ONE,,,N,1.325761,103.843076
LIVINGSTON MANSIONS,,,N,1.352083,103.819836
URBAN EDGE @ HOLLAND V,,,N,1.352083,103.819836
CHERRY GARDENS,,,N,1.332554,103.792041
MERAPRIME,,,N,1.352083,103.819836
SUNSHINE PLAZA,,,N,1.352083,103.819836
D'PAVILION,,,N,1.352083,103.819836
SUNSHINE RESIDENCE,,,N,1.352083,103.819836
CHERRYHILL,,,N,1.332554,103.792041
THE WISTERIA,Northern Resi Pte Ltd/Northern Retail Pte Ltd,Yishun Ring Road,N,1.352083,103.819836
VIIO @ BALESTIER,Techkon Commercial Pte Ltd,Balestier Road,N,1.352083,103.819836
BALLOTA PARK CONDOMINIUM,,,N,1.357851,103.969383
CITYSCAPE @FARRER PARK,,,N,1.352083,103.819836
THE MEZZO,,,N,1.352083,103.819836
OCEAN FRONT SUITES,,,N,1.352083,103.819836
LUCIDA,,,N,1.352083,103.819836
SERANGOON VILLE,,,N,1.317064,103.889569
ST FRANCIS LODGE,,,N,1.352083,103.819836
ORCHARD COURT,,,N,1.301578,103.838276
HORIZON RESIDENCES,,,N,1.381339,103.901383
THE INSPIRA,,,N,1.352083,103.819836
CLIFTEN,,,N,1.346127,103.863781
CANNE LODGE,,,N,1.314225,103.873376
IRIDIUM,,,N,1.352083,103.819836
LOFT@HOLLAND,,,N,1.352083,103.819836
SANTA FE MANSIONS,,,N,1.352083,103.819836
THE BENTLY RESIDENCES@KOVAN,Goodland Global Pte Ltd,Kovan Road,N,1.352083,103.819836
MONTEBLEU,,,N,1.352083,103.819836
ASCENT @ 456,Quest Homes Pte Ltd,Balestier Road,N,1.352083,103.819836
HILLVIEW 128,,,N,1.356758,103.7609
THE DAIRY FARM,,,N,1.364845,103.774296
D' HILLSIDE LOFT,,,N,1.352083,103.819836
QUESTA @ DUNMAN,,,N,1.352083,103.819836
TROPIKA EAST,Feature (East) Development Pte Ltd,Foo Kim Lin Road,N,1.352083,103.819836
KENTISH GREEN,,,N,1.315873,103.851786
THE VINES,,,N,1.418685,103.842014
WOODGROVE CONDOMINIUM,,,N,1.430536,103.782948
THE SERENADE @ HOLLAND,,,N,1.352083,103.819836
SCOTTS 28,,,N,1.309897,103.834788
GOLD COAST CONDOMINIUM,,,N,1.352083,103.819836
CHOON KIM HOUSE,,,N,1.354501,103.879053
CHANGI GREEN,,,N,1.344621,103.963633
PARC SOMME,,,N,1.311553,103.858297
EVELYN MANSIONS,,,N,1.316456,103.839171
JEWEL OF BALMORAL,,,N,1.352083,103.819836
TANGLIN PARK,,,N,1.301823,103.819178
CRYSTAL LODGE,,,N,1.352083,103.819836
CHANGI COURT,,,N,1.318358,103.908854
MERLOT VILLE,,,N,1.352083,103.819836
BLOSSOMS @ WOODLEIGH,,,N,1.352083,103.819836
THE CRISTALLO,Tiong Aik Investments Pte Ltd,Lorong K Telok Kurau,N,1.352083,103.819836
MENDON SPRING,,,N,1.352083,103.819836
GOLD LEAF MANSIONS,,,N,1.31142,103.916022
REGENT RESIDENCES,,,N,1.352083,103.819836
WEMBLY RESIDENCES,,,N,1.352083,103.819836
WOOLLERTON PARK,,,N,1.317239,103.809026
PATERSON SUITES,,,N,1.352083,103.819836
VERSILIA ON HAIG,,,N,1.352083,103.819836
ARTHUR MANSIONS,,,N,1.298865,103.887304
VERANDA,,,N,1.352083,103.819836
PINEHURST CONDOMINIUM,,,N,1.352083,103.819836
ROYCE RESIDENCES,,,N,1.352083,103.819836
SPOTTISWOODE 18,,,N,1.275416,103.83764
SPANISH VILLAGE,,,N,1.315525,103.805743
PARK RESIDENCES KOVAN,,,N,1.352083,103.819836
THE CAPRI,,,N,1.352083,103.819836
VENTANA,,,N,1.352083,103.819836
TREASURE PLACE,,,N,1.248955,103.842987
LAKESIDE TOWER,,,N,1.352083,103.819836
BLEU @ EAST COAST,,,N,1.352083,103.819836
WATTEN ESTATE CONDOMINIUM,,,N,1.352083,103.819836
THE FORESTA @ MOUNT FABER,,,N,1.352083,103.819836
THE MORNINGSIDE,,,N,1.295751,103.836041
BOATHOUSE RESIDENCES,Easthouse Properties Pte Ltd,Upper Serangoon View,N,1.352083,103.819836
MUTIARA VIEW,,,N,1.352083,103.819836
CENTRAL VIEW,,,N,1.344211,103.860034
WILKIE COURT,,,N,1.302926,103.847504
FRUITION,,,N,1.352083,103.819836
CITYVISTA RESIDENCES,,,N,1.352083,103.819836
SKYSUITES17,,,N,1.312862,103.923705
TREASURES @ G20,Treasures 20 Pte Ltd,Lorong 20 Geylang,N,1.248955,103.842987
PALM OASIS,,,N,1.352083,103.819836
SHAW PLAZA 0 TWIN HEIGHTS,,,N,1.352083,103.819836
GRANDVIEW SUITES,Grandview (Geylang) Pte Ltd,Lorong 22 Geylang,N,1.352083,103.819836
NESS,,,N,1.352083,103.819836
PALAZZETTO,,,N,1.29702,103.837656
JOOL SUITES,,,N,1.352083,103.819836
ST PATRICK'S RESIDENCES,,,N,1.352083,103.819836
LE SOMME,,,N,1.352083,103.819836
COASTARINA,,,N,1.352083,103.819836
LE CONNEY PARK,,,N,1.352083,103.819836
KING'S ARCADE,,,N,1.319085,103.807125
THE SUNNYDALE,,,N,1.352083,103.819836
CARLISLE COURT,,,N,1.314587,103.84792
TREASURES@G19,,,N,1.352083,103.819836
THE SIXTH AVENUE RESIDENCES,,,N,1.352083,103.819836
FAMILIE MANSIONS,,,N,1.309969,103.877541
KOVAN GRANDEUR,,,N,1.352083,103.819836
EASTSIDE LOFT,,,N,1.352083,103.819836
WING ON LIFE GARDEN,,,N,1.352083,103.819836
SUNSHINE GROVE,,,N,1.345776,103.872682
CALARASI,,,N,1.352083,103.819836
THE MORNINGTON,,,N,1.407427,103.871303
REGIS MANSIONS,,,N,1.352083,103.819836
CELESTIA,,,N,1.352083,103.819836
SMART SUITES,,,N,1.352083,103.819836
DUO RESIDENCES,Ophir-Rochor Commercial Pte Ltd/Ophir-Rochor Hotel Pte Ltd/Ophir-Rochor Residential Pte Ltd,Fraser Street,N,1.352083,103.819836
RIDGE COURT,,,N,1.277595,103.790194
HUME PARK II,,,N,1.299752,103.857142
NOVELIS,,,N,1.352083,103.819836
TEN @ SUFFOLK,,,N,1.314432,103.844255
COSTA ESTE,,,N,1.352083,103.819836
KATONG VILLE,,,N,1.352083,103.819836
MARTINA MANSIONS,,,N,1.352083,103.819836
CANARY VILLE,,,N,1.352083,103.819836
AVA TOWERS,,,N,1.322207,103.851952
1 KING ALBERT PARK,,,N,1.336723,103.779833
DE LENTE,,,N,1.352083,103.819836
ROSEWOOD,,,N,1.352083,103.819836
ONE TREE HILL MANSIONS,,,N,1.352083,103.819836
THE PETALS,,,N,1.353086,103.760028
THE AMBRA,,,N,1.352083,103.819836
TROPICAL SPRING,,,N,1.352083,103.819836
HILLVIEW RESIDENCE,,,N,1.352083,103.819836
SUITES DE LAUREL,,,N,1.352083,103.819836
18 WOODSVILLE,,,N,1.329181,103.867781
KILAT CENTRE,,,N,1.341271,103.772629
THE AMARELLE,,,N,1.352083,103.819836
VILLA DELLE ROSE,,,N,1.352083,103.819836
LUMA,,,N,1.352083,103.819836
TWENTYONE ANGULLIA PARK,,,N,1.304143,103.829806
PRIMEDGE,,,N,1.352083,103.819836
THE PROMENADE@PELIKAT,Oxley Vibes Pte Ltd,Jalan Pelikat,N,1.354525,103.886888
CASA AERATA,,,N,1.352083,103.819836
SUITES @ GUILLEMARD,,,N,1.352083,103.819836
FORTUNE PARK,,,N,1.352083,103.819836
EVERITT EDGE,Wenul Development Pte Ltd,Joo Chiat Place,N,1.316029,103.901506
RESIDENCES @ JANSEN,,,N,1.352083,103.819836
THE PEARL @ MOUNT FABER,,,N,1.352083,103.819836
ONE EIGHTIES RESIDENCES,Santa Land Pte Ltd,Joo Chiat Terrace,N,1.314847,103.90529
SUNFLOWER RESIDENCE,,,N,1.352083,103.819836
MULBERRY TREE,,,N,1.352083,103.819836
FOREST HILLS CONDOMINIUM,,,N,1.404141,103.818342
CENTRA HEIGHTS,,,N,1.352083,103.819836
ONE DUCHESS,Rejency Holdings Pte Ltd,Duchess Road,N,1.324968,103.808398
SUNSHINE LODGE,,,N,1.344833,103.871092
PALM GROVE CONDOMINIUM,,,N,1.352083,103.819836
RITZ @ FARRER,ONE42 Pte Ltd,Race Course Road,N,1.352083,103.819836
MODA,,,N,1.352083,103.819836
MACKENZIE 88,,,N,1.306347,103.847522
MELROSE PARK,,,N,1.348574,103.865808
THE SPINNAKER,,,N,1.352083,103.819836
GOLDEN HEIGHTS,,,N,1.349566,103.865957
NATHAN SUITES,,,N,1.352083,103.819836
GUILLEMARD SUITES,MK25 Pte Ltd,Guillemard Road,N,1.352083,103.819836
GRANGE HEIGHTS,,,N,1.299653,103.830565
SILVERSCAPE,,,N,1.352083,103.819836
TOH TUCK LODGE,,,N,1.352083,103.819836
JUPITER 18,,,N,1.358247,103.826277
D'SUNRISE,,,N,1.388457,103.855432
WATERFORD RESIDENCE,,,N,1.352083,103.819836
NOVENA COURT,,,N,1.321211,103.843139
KENTISH LODGE,,,N,1.316088,103.853223
LA CRYSTAL,,,N,1.352083,103.819836
CAVAN SUITES,,,N,1.352083,103.819836
KOVAN APARTMENTS,,,N,1.357402,103.879496
THE LIGHT @ CAIRNHILL,,,N,1.352083,103.819836
GEM RESIDENCES,GEM Homes Pte Ltd,Lorong 5 Toa Payoh,N,1.352083,103.819836
YONG SIAK VIEW,,,N,1.282673,103.830261
FLAME TREE PARK,,,N,1.360827,103.828643
AVALON,,,N,1.352083,103.819836
SYCAMORE TREE,Astoria Development Pte Ltd,Fowlie Road,N,1.352083,103.819836
BUTTERWORTH 33,,,N,1.312632,103.895665
UNITED MANSION,,,N,1.311344,103.920921
VILLE ROYALE,,,N,1.352083,103.819836
CROWN CENTRE,,,N,1.323068,103.811977
SUITES @ KOVAN,,,N,1.352083,103.819836
SPRING @ KATONG,,,N,1.352083,103.819836
SUITES@ KATONG,,,N,1.307786,103.895483
NOVENA HILL,,,N,1.321211,103.843139
NEPTUNE COURT,,,N,1.306369,103.922089
MORO MANSIONS,,,N,1.315248,103.889507
JANSEN SPRING,,,N,1.352083,103.819836
GRAND CHATEAU,,,N,1.343628,103.769433
JAYA TOWERS,,,N,1.352083,103.819836
ST THOMAS VILLE,,,N,1.352083,103.819836
LIV ON WILKIE,RH Rochor Pte Ltd,Wilkie Terrace,N,1.352083,103.819836
PEARL BANK APARTMENT,,,N,1.283072,103.839532
ROSEVALE,,,N,1.352083,103.819836
ISUITES @ PALM,,,N,1.352083,103.819836
HONG HENG MANSIONS,,,N,1.402963,103.81833
THE CORNWALL,,,N,1.28178,103.799956
TIVOLI GRANDE,,,N,1.352083,103.819836
AMANINDA,,,N,1.352083,103.819836
LE M RESIDENCE,,,N,1.352083,103.819836
FRAGRANT GARDENS,,,N,1.316709,103.815987
MANDALAY MANSION,,,N,1.352083,103.819836
KISMIS COURT,,,N,1.336965,103.76838
THE TREELINE,,,N,1.352083,103.819836
RIVERBAY,,,N,1.352083,103.819836
OXFORD SUITES,,,N,1.352083,103.819836
HAIG ELEVEN,,,N,1.308298,103.899668
SIMS EDGE,Macly Equity Pte Ltd,Geylang East Avenue 2,N,1.352083,103.819836
GOLDHILL TOWERS,,,N,1.352083,103.819836
THE VESTA,,,N,1.283056,103.791111
TURQUOISE,,,N,1.243013,103.837114
LA FLEUR,,,N,1.352083,103.819836
MOUNTBATTEN LODGE,,,N,1.352083,103.819836
LEICESTER SUITES,,,N,1.352083,103.819836
THE ARRIS,,,N,1.352083,103.819836
833 M B RESIDENCES,,,N,1.317829,103.832478
ROSE MAISON,,,N,1.352083,103.819836
FERNHILL COURT,,,N,1.313854,103.824031
KALLANG RIVERSIDE,The Singapore-Johore Express Pte Ltd,Kampong Bugis,N,1.306566,103.869913
NOVENA SUITES,,,N,1.315953,103.841871
SUNNYVALE RESIDENCES,RH East Coast Pte Ltd,Lorong K Telok Kurau,N,1.352083,103.819836
ECHELON,Freshview Developments Pte Ltd,Alexandra View,N,1.352083,103.819836
THE RITZ0CARLTON RESIDENCES SINGAPORE CAIRNHILL,,,N,1.307937,103.836225
DUNMAN REGENCY,GHC Land Pte Ltd,Dunman Road,N,1.309432,103.893144
CAVENAGH GARDENS,,,N,1.308289,103.842376
VENEZIO,,,N,1.352083,103.819836
NATURE MANSIONS,,,N,1.32501,103.85217
HOUGANG GREEN,,,N,1.379037,103.886252
SANCTUARY @ 813,,,N,1.439727,103.806934
KEMAMAN POINT,,,N,1.325887,103.849951
PACIFIC MANSION,,,N,1.352083,103.819836
HIGH POINT,,,N,1.291044,103.848995
HUA XIN COURT,,,N,1.352083,103.819836
THE ALCOVE,,,N,1.314354,103.883943
MELOSA,,,N,1.352083,103.819836
# 1 LOFT,The One Development 2 Pte Ltd,Lorong 24 Geylang,N,1.346783,103.852544
KENG LEE COURT,,,N,1.313649,103.842625
MACKENZIE REGENCY,,,N,1.352083,103.819836
HIGH OAK CONDOMINIUM,,,N,1.352083,103.819836
LAGUNA 88,,,N,1.309612,103.934805
THE BALMORAL,,,N,1.315275,103.832664
183 LONGHAUS,TEE Ventures Pte Ltd,Upper Thomson Road,N,1.352083,103.819836
PATERSON RESIDENCE,,,N,1.352083,103.819836
STUDIOS@TEMBELING,,,N,1.352083,103.819836
D'BANYAN,,,N,1.352083,103.819836
HILBRE28,Development 72 Pte Ltd,Hillside Drive,N,1.352083,103.819836
THE COTZ,,,N,1.313541,103.910622
BALMORAL CREST,,,N,1.315275,103.832664
DE PARADISO,,,N,1.352083,103.819836
VICTORY HEIGHTS,,,N,1.352083,103.819836
EMERY POINT,,,N,1.352083,103.819836
MURANO,,,N,1.352083,103.819836
GALLERY FIFTEEN,,,N,1.280285,103.856454
MOONSTONE VIEW,,,N,1.327766,103.865947
DAWN VILLE,,,N,1.312424,103.894584
GLOUCESTER MANSIONS,,,N,1.352083,103.819836
THE YARDLEY,,,N,1.352083,103.819836
KENTVIEW PARK,,,N,1.352083,103.819836
8 FARRER SUITES,Richcapital Pte Ltd,Sing Joo Walk,N,1.352083,103.819836
LE NOUVEL ARDMORE,,,N,1.352083,103.819836
LUTHERAN TOWERS,,,N,1.352083,103.819836
HAWAII TOWER,,,N,1.352083,103.819836
LUMIERE,,,N,1.352083,103.819836
LAUREL TREE,Lerida Pte Ltd,Hillview Terrace,N,1.352083,103.819836
THE TROPIC GARDENS,,,N,1.352083,103.819836
CARDIFF RESIDENCE,,,N,1.352083,103.819836
OLINA LODGE,,,N,1.352083,103.819836
OLEANAS RESIDENCE,,,N,1.352083,103.819836
VILLA MARTIA,,,N,1.352083,103.819836
LOFT @ NATHAN,,,N,1.352083,103.819836
CASA PASIR RIS,,,N,1.379223,103.963833
ROBERTSON EDGE,,,N,1.352083,103.819836
NICON GARDENS,,,N,1.352083,103.819836
THE HERMITAGE,,,N,1.31454,103.8368
POLLEN & BLEU,Singland Development (Farrer Drive) Pte Ltd,Farrer Drive,N,1.352083,103.819836
SUNFLOWER COURT,,,N,1.310706,103.87655
THE ESPIRA,,,N,1.31718,103.912771
CASA CONTENDERE,,,N,1.352083,103.819836
SUNSHINE GRANDEUR,,,N,1.352083,103.819836
RIVERIA GARDENS,,,N,1.316327,103.942766
THE ABODE AT DEVONSHIRE,,,N,1.352083,103.819836
26 NEWTON,Novelty Corp Pte Ltd,Newton Road,N,1.315696,103.841686
CLYDESVIEW,,,N,1.29429,103.818125
ST FRANCIS COURT,,,N,1.324817,103.86367
PRISTINE HEIGHTS,,,N,1.352083,103.819836
CENTURY MANSIONS,,,N,1.352083,103.819836
CANNAVILLE,,,N,1.309321,103.905287
THE DAFFODIL,,,N,1.354695,103.828389
BRISTOL LODGE,,,N,1.352083,103.819836
THE CALLISTA,,,N,1.352083,103.819836
RIO CASA,,,N,1.352083,103.819836
EAST VIEW 18,,,N,1.352794,103.759054
THE TIER,,,N,1.352083,103.819836
PATERSON LINC,,,N,1.303259,103.830034
JUBILEE RESIDENCE,,,N,1.352083,103.819836
THE ELEMENT @ STEVENS,,,N,1.352083,103.819836
SHELFORD REGENCY,,,N,1.352083,103.819836
AQUARINE GARDENS,,,N,1.352083,103.819836
RHAPSODY ON MOUNT ELIZABETH,,,N,1.305981,103.835943
CASA RIVIERA,,,N,1.352083,103.819836
ASPEN LOFT,,,N,1.352083,103.819836
THE MONTAGE,,,N,1.352083,103.819836
TRESALVEO,,,N,1.351037,103.840848
CITY EDGE,,,N,1.31951,103.846533
PARC SOPHIA,,,N,1.304574,103.84735
WILKIE APARTMENTS,,,N,1.352083,103.819836
YUEN SING MANSION,,,N,1.352083,103.819836
KELLOCK LODGE,,,N,1.352083,103.819836
MARYMOUNT VIEW,,,N,1.352907,103.840873
SEA AVENUE MANSIONS,,,N,1.305192,103.907063
THE ARC AT DRAYCOTT,,,N,1.352083,103.819836
SELANTING GREEN,,,N,1.342871,103.76882
ISUITES @ TANI,,,N,1.352083,103.819836
JLB RESIDENCES,,,N,1.352083,103.819836
PLATINUM EDGE,,,N,1.352083,103.819836
SILAHIS APARTMENT,,,N,1.352083,103.819836
LEONIE TOWERS,,,N,1.298406,103.833362
BALCON EAST,,,N,1.352083,103.819836
LEVENUE,Macly Pte Ltd,Lengkong Empat,N,1.352083,103.819836
VILLAS LAGUNA,,,N,1.309612,103.934805
PARC BLEU,,,N,1.352083,103.819836
LEONIE SUITES,,,N,1.352083,103.819836
THE SILVER FIR,,,N,1.352083,103.819836
ARTHUR 118,,,N,1.29892,103.887605
CHANTILLY RISE,,,N,1.352083,103.819836
NADIA MANSIONS,,,N,1.352083,103.819836
GRANGE INFINITE,,,N,1.352083,103.819836
FAIRLODGE,,,N,1.311529,103.801655
THE HOLLAND COLLECTION,,,N,1.352083,103.819836
VOGX,,,N,1.352083,103.819836
CENTRA STUDIOS,,,N,1.352083,103.819836
COASTAL BREEZE RESIDENCES,,,N,1.352083,103.819836
CELADON VIEW,,,N,1.352083,103.819836
THE PROMINENCE,,,N,1.352083,103.819836
RANGOON 88,,,N,1.314431,103.854205
EDEN CREST,,,N,1.344895,103.871733
HOLLANDSWOOD COURT,,,N,1.352083,103.819836
FERN LODGE,,,N,1.352083,103.819836
PRIME RESIDENCE,,,N,1.352083,103.819836
ROCCA BALESTIER,,,N,1.352083,103.819836
ST MARTIN RESIDENCE,,,N,1.29409,103.838112
SERAYA 9,,,N,1.373065,103.827768
BEAVERTON COURT,,,N,1.316088,103.776058
DE CENTURION,,,N,1.352083,103.819836
TESSA LODGE,,,N,1.352083,103.819836
11 AMBER ROAD,,,N,1.299146,103.899208
KOVAN LODGE,,,N,1.352083,103.819836
CHEN FANG MANSIONS,,,N,1.31537,103.88777
SERENITY BREEZE,,,N,1.352083,103.819836
THE EBONY,Bravo Building Construction Pte Ltd,Lorong Marican,N,1.31038,103.910367
SIGNATURE RESIDENCE,,,N,1.352083,103.819836
RITZ MANSIONS,,,N,1.32501,103.85217
THE BEAUMONT,,,N,1.352083,103.819836
ATTITUDE AT KIM YAM,,,N,1.352083,103.819836
CHELSEA LODGE,,,N,1.352083,103.819836
CHATELET,,,N,1.352083,103.819836
MONTEREY PARK CONDOMINIUM,,,N,1.352083,103.819836
SOHO @ FARRER,,,N,1.352083,103.819836
NATURALIS,,,N,1.352083,103.819836
CLAREMONT,,,N,1.352083,103.819836
SOHO 188,,,N,1.312082,103.90035
RIVIERA POINT,,,N,1.316327,103.942766
CRAIG PLACE,,,N,1.278053,103.842299
YELEY BUILDING,,,N,1.352083,103.819836
PALMERA RESIDENCE,,,N,1.352083,103.819836
KASTURINA LODGE,,,N,1.352083,103.819836
NOUVELLE PARK,,,N,1.352083,103.819836
ALEGRIA,,,N,1.352083,103.819836
ESTA RUBY,,,N,1.352083,103.819836
STRATUM,Elitist Development Pte Ltd,Elias Road,N,1.352083,103.819836
D' CASITA,,,N,1.352083,103.819836
THE MERLOT,,,N,1.352083,103.819836
BASSEIN COURT,,,N,1.322764,103.848305
VILLA AZURA,,,N,1.352083,103.819836
MERIDIAN 38,JVA Telok Kurau Pte Ltd,Lorong M Telok Kurau,N,1.352083,103.819836
NEWEST,Oxley Viva Pte Ltd,West Coast Drive,N,1.28345,103.842833
THE PARK VALE,,,N,1.330836,103.811421
BEDOK SHOPPING COMPLEX,,,N,1.352083,103.819836
AVON PARK,,,N,1.339255,103.869295
THE SUNSHINE,,,N,1.346311,103.872014
THE WATER EDGE,,,N,1.352083,103.819836
16 @ AMBER,,,N,1.299536,103.898841
SUITES @ EUNOS,,,N,1.352083,103.819836
BIJOU,JU-I Properties Pte Ltd,Jalan Mat Jambol,N,1.4,103.766667
SUTTON PLACE,,,N,1.352083,103.819836
VILLAGE @ PASIR PANJANG,Champsworth Development Pte Ltd,Pasir Panjang Road,N,1.28086,103.784958
EAST BAY GARDENS,,,N,1.28803,103.869162
SKYLINE @ ORCHARD BOULEVARD,Tanglin View Pte Ltd,Angullia Park,N,1.304326,103.82997
LANGSTON VILLE,,,N,1.352083,103.819836
CASSIA VIEW,,,N,1.311007,103.886374
TEMBELING CENTRE,,,N,1.352083,103.819836
URBAN LOFTS,,,N,1.314128,103.854082
RESIDENCES BOTANIQUE,,,N,1.352083,103.819836
CENTRAL IMPERIAL,G28 Development Pte Ltd,Lorong 14 Geylang,N,1.352083,103.819836
BISHAN PARK CONDOMINIUM,,,N,1.352083,103.819836
PALM GREEN,,,N,1.314512,103.930443
WATERSCAPE AT CAVENAGH,,,N,1.352083,103.819836
NAUNG RESIDENCE,Orion-Two Residential Pte Ltd,Jalan Naung,N,1.352083,103.819836
KENSINGTON PARK CONDOMINIUM,,,N,1.352083,103.819836
MANDALAY TOWERS,,,N,1.323697,103.849162
SAPPHIRE COURT,,,N,1.312839,103.911011
PARK VIEW MANSION,,,N,1.352083,103.819836
CARMI MANSIONS,,,N,1.352083,103.819836
CASA SARINA,,,N,1.319715,103.907254
STURDEE VIEW,,,N,1.312968,103.858437
CHANGI GARDEN,,,N,1.318358,103.908854
CASA NOVACREST,,,N,1.352083,103.819836
MAYFAIR RESIDENCES,Giorgio Residences Pte Ltd,East Coast Road,N,1.352083,103.819836
KEMBANGAN SUITES,,,N,1.32044,103.91272
THE GRANDIFLORA,,,N,1.352083,103.819836
PALM VISTA,,,N,1.314512,103.930443
REGAL COURT,,,N,1.352083,103.819836
JERVOIS JADE APARTMENTS,,,N,1.352083,103.819836
BLISS RESIDENCES,,,N,1.352083,103.819836
KIM SIA COURT,,,N,1.352083,103.819836
THE OXLEY,,,N,1.298142,103.841077
RV SUITES,,,N,1.352083,103.819836
GUILIN MANSIONS,,,N,1.315836,103.88962
ELIZABETH TOWER,,,N,1.352083,103.819836
MOONSTONE RESIDENCES,,,N,1.352083,103.819836
THE LATTIZ,,,N,1.352083,103.819836
WHARTON VALE,,,N,1.352083,103.819836
URBAN RESORT CONDOMINIUM,,,N,1.352083,103.819836
PALM LODGE,,,N,1.315315,103.889592
THE HELICONIA,,,N,1.352083,103.819836
REGENCY SUITES,,,N,1.284405,103.829123
PARC STEVENS,,,N,1.316717,103.827208
LE WOOD,,,N,1.352083,103.819836
LA MEYER,,,N,1.352083,103.819836
JANSEN MANSIONS,,,N,1.352083,103.819836
EURO0ASIA PARK,,,N,1.352083,103.819836
ALESSANDREA,,,N,1.352083,103.819836
DEVONSHIRE 12,U-Asia Pte Ltd,Devonshire Road,N,1.298002,103.837923
DAISY LODGE,,,N,1.352083,103.819836
SPOTTISWOODE PARK,,,N,1.27518,103.837186
PARK COURT,,,N,1.315603,103.900081
EASTVILLE APARTMENTS,,,N,1.31263,103.903025
ALPHA APARTMENTS,,,N,1.312116,103.905517
BAGNALL COURT,,,N,1.352083,103.819836
SUITES @ AMBER,,,N,1.352083,103.819836
BENDIGO GARDENS,,,N,1.352083,103.819836
CRESCENDO PARK,,,N,1.352083,103.819836
CRADELS,,,N,1.352083,103.819836
CHAPEL LODGE,,,N,1.352083,103.819836
KIM KEAT HOUSE,,,N,1.325352,103.853864
SUITES @ EASTCOAST,,,N,1.307786,103.895483
STUDIOS @ MARNE,Vyco Pte Ltd,Marne Road,N,1.313072,103.856903
LIMAU PARK,,,N,1.322361,103.949176
OVADA 8,,,N,1.352083,103.819836
ROBIN REGALIA,,,N,1.352083,103.819836
SUITES@BRADDELL,,,N,1.352083,103.819836
TORIEVIEW MANSIONS,,,N,1.314407,103.885903
SUNNY GROVE,,,N,1.352083,103.819836
TEMBELING MANSIONS,,,N,1.308067,103.904371
KHEAM HOCK GARDENS,,,N,1.329001,103.820126
STILL MANSIONS,,,N,1.352083,103.819836
UP@ROBERTSON QUAY,NewVista Realty Pte Ltd/Novel Developments Pte Ltd,Robertson Quay,N,1.290832,103.838023
INTERO,,,N,1.352083,103.819836
HERITAGE EAST,,,N,1.324022,103.845493
PAYA LEBAR RESIDENCES,,,N,1.361154,103.885038
CENTRA LOFT,,,N,1.346783,103.852544
SHELFORD MANSIONS,,,N,1.352083,103.819836
GLASGOW RESIDENCE,,,N,1.352083,103.819836
CARLYX RESIDENCE,,,N,1.313689,103.848251
RESIDENCES @ SOMME,,,N,1.352083,103.819836
SEVEN HOLT ROAD,,,N,1.293979,103.825747
CADENCE LIGHT,,,N,1.352083,103.819836
CAMELLIA LODGE,,,N,1.352083,103.819836
VENTUNO BALMORAL,,,N,1.352083,103.819836
EDEN RESIDENCES CAPITOL,Capitol Hotel Management Pte Ltd/Capitol Residential Development Pte Ltd/Capitol Retail Management Pte Ltd,Stamford Road,N,1.352083,103.819836
SEAVIEW POINT,,,N,1.300277,103.896426
CORONATION SHOPPING PLAZA,,,N,1.352083,103.819836
THE SUNNIFLORA,,,N,1.352083,103.819836
CORONATION ARCADE,,,N,1.321882,103.805303
CLYDESWOOD,,,N,1.352083,103.819836
HARBOUR SUITES,,,N,1.352083,103.819836
ROYALVILLE,,,N,1.352083,103.819836
ISUITES @ MARSHALL,,,N,1.352083,103.819836
MONARCHY APARTMENTS,,,N,1.324834,103.850214
BUONA VISTA GARDENS,,,N,1.303708,103.787715
THE BALMORAL SPRING,,,N,1.352083,103.819836
QUINTERRA,,,N,1.318632,103.780605
FONTANA HEIGHTS,,,N,1.315453,103.776854
CASERO @ DUNMAN,,,N,1.352083,103.819836
GIDEON'S LODGE,,,N,1.352083,103.819836
SPRING GARDENS,,,N,1.281169,103.84362
LE CRESCENDO,,,N,1.330782,103.889315
HIGHLAND CENTRE,,,N,1.355167,103.877019
PARC ASTON,,,N,1.330047,103.86756
ROYAL COURT,,,N,1.283082,103.798991
ONE ST MICHAEL'S,,,N,1.324657,103.865195
SUNFLOWER LODGE,,,N,1.352083,103.819836
SKYPARK,,,N,1.29715,103.835693
BELLA CASITA,,,N,1.352083,103.819836
HAIG 162,,,N,1.306344,103.898709
LE HILL CONDOMINIUM,,,N,1.352083,103.819836
MONTROSA,,,N,1.352083,103.819836
ISLAND VIEW,,,N,1.333031,103.815757
BUTTERWORTH VIEW,,,N,1.312603,103.89584
QUEENSBERRY LODGE,,,N,1.352083,103.819836
STADIA,,,Y,1.306348,103.874589
MINT RESIDENCES @ JANSEN,,,Y,1.352083,103.819836
GARDEN APARTMENT,,,Y,1.311652,103.773708
THE GRANGE,,,Y,1.299653,103.830565
THE MARQ ON PATERSON HILL,,,Y,1.3005,103.828483
CENTREPOINT,,,Y,1.352083,103.819836
THE FLORENTINE,,,Y,1.365698,103.885843
CHESTNUT VILLE,,,Y,1.352083,103.819836
BIRMINGHAM MANSIONS,,,Y,1.352083,103.819836
PARC SEABREEZE,,,Y,1.303845,103.90601
THE MONTANA,,,Y,1.352083,103.819836
SEASCAPE,,,Y,1.239758,103.837974
BUONA LODGE,,,Y,1.282074,103.786791
THE LENOX,,,Y,1.318391,103.91135
TULIP GARDEN,,,Y,1.312194,103.803674
GRAND REGENCY,,,Y,1.352083,103.819836
PARC MACKENZIE,,,Y,1.352083,103.819836
CARLYX GREEN,,,Y,1.352083,103.819836
BLUWATERS,,,Y,1.352083,103.819836
THE VIRIDIAN,Orion-One Residential Pte Ltd,Jalan Ampas,Y,1.352083,103.819836
THE LANAI,,,Y,1.352083,103.819836
ONE BALMORAL,Hong Leong Holdings Ltd,Balmoral Road,Y,1.313333,103.830196
PARC CENTENNIAL,,,Y,1.352083,103.819836
GRANDLINK SQUARE,,,Y,1.314353,103.891918
THE RED HOUSE,WRH Pte Ltd,East Coast Road,Y,1.352083,103.819836
D'GROVE VILLAS,,,Y,1.352083,103.819836
ROXY SQUARE,,,Y,1.304445,103.902775
NASSIM MANSION,,,Y,1.352083,103.819836
D' FRESCO,,,Y,1.352083,103.819836
THE CAPE,,,Y,1.300646,103.901251
CASCADALE,,,Y,1.352083,103.819836
THE 101,,,Y,1.263564,103.822917
BUCKLEY CLASSIQUE,,,Y,1.352083,103.819836
MOUNTBATTEN SUITES,,,Y,1.352083,103.819836
NORMANTON PARK,,,Y,1.288624,103.792549
EWE BOON REGENT,,,Y,1.352083,103.819836
REIGNWOOD HAMILTON SCOTTS,,,Y,1.311419,103.835921
LEONIE GARDENS,,,Y,1.298646,103.831532
THE TRESOR,,,Y,1.352083,103.819836
FIORENZA,,,Y,1.362827,103.886742
IDYLLIC EAST,,,Y,1.352083,103.819836
BELLA VISTA,,,Y,1.352083,103.819836
THE GLACIER,,,Y,1.352083,103.819836
ZEDGE,,,Y,1.322545,103.848121
ORCHARD TOWERS,,,Y,1.333166,103.844002
EUNOS PARK,,,Y,1.324087,103.905623
SCENIC HEIGHTS,,,Y,1.352083,103.819836
THE SCOTTS TOWER,Far East Success Development Pte Ltd/Whitewater Properties Pte Ltd,Scotts Road,N,1.352083,103.819836
BEAUTY WORLD PLAZA,,,N,1.352083,103.819836
BLUWATERS 2,,,N,1.352083,103.819836
BLISS@KOVAN,BBR Kovan Pte Ltd,Simon Lane,N,1.352083,103.819836
HAIG RESIDENCES,,,N,1.352083,103.819836
DENG FU VILLE,,,N,1.352083,103.819836
SAM KIANG MANSIONS,,,N,1.352083,103.819836
DEVONSHIRE RESIDENCES,Orchard Suites Residence Pte Ltd,Devonshire Road,N,1.298021,103.837543
CRYSTAL DEW,,,N,1.352083,103.819836
THE CARPMAELINA,,,N,1.352083,103.819836
LOFT @ RANGOON,,,N,1.314989,103.853716
BALESTIER PLAZA,,,N,1.323004,103.852305
TYRWHITT 139,,,N,1.311565,103.860107
MIN YUAN,,,N,1.299024,103.851419
KINGS APARTMENTS,,,N,1.312178,103.907732
THE CENTREN,Pinnacle Development (L27) Pte Ltd,Lorong 27 Geylang,N,1.437842,103.771102
PUBLIC MANSION,,,N,1.352083,103.819836
DORMER PARK,,,N,1.352083,103.819836
ASTON MANSIONS,,,N,1.352083,103.819836
JOO CHIAT MANSIONS,,,N,1.314087,103.904407
CHARMING GARDEN,,,N,1.352083,103.819836
SHELFORD VIEW,,,N,1.327497,103.811276
THE VIEW @ MEYER,,,N,1.297175,103.891498
SUN PLAZA,,,N,1.448198,103.81958
TRENDALE TOWER,,,N,1.352083,103.819836
RIO GARDENS,,,N,1.352083,103.819836
THE VERV @ RV,,,N,1.352083,103.819836
CASHEW PARK CONDOMINIUM,,,N,1.371629,103.767603
RACE COURSE 138,,,N,1.310082,103.852201
BUCKLEY 18,,,N,1.318175,103.840777
THE SUNNY LEGEND,,,N,1.352083,103.819836
EURO0ASIA COURT,,,N,1.29447,103.837637
CITY STUDIOS,,,N,1.352083,103.819836
SPACE @ KOVAN,RP North Pte Ltd/RP Properties Pte Ltd/Roxy-Pacific Developments Pte Ltd,Yio Chu Kang Road,N,1.352083,103.819836
TOWNHOUSE APARTMENTS,,,N,1.352083,103.819836
COUNTRY ESQUIRE,,,N,1.37415,103.940812
CHANCERY PARK,,,N,1.319894,103.837951
TEMBELING GROVE,,,N,1.307894,103.904467
PROSPERO VILLE,,,N,1.352083,103.819836
SERAYA BREEZE,,,N,1.352083,103.819836
THE AXIS,,,N,1.352083,103.819836
PARC HAVEN,,,N,1.277721,103.850878
KELLETT COURT,,,N,1.327355,103.812381
COASTAL VIEW RESIDENCES,,,N,1.379282,103.960998
KOVAN ESQUIRE,,,N,1.352083,103.819836
THE HACIENDA,,,N,1.313522,103.927103
WING FONG MANSIONS,,,N,1.311324,103.879321
VANADIUM,,,N,1.352083,103.819836
PRIMO RESIDENCES,,,N,1.352083,103.819836
CASCATA,,,N,1.352083,103.819836
RIVER VALLEY APARTMENTS,,,N,1.295254,103.829179
THE MIDAS,,,N,1.352083,103.819836
NIVEN LOFT,,,N,1.352083,103.819836
GOODVIEW APARTMENTS,,,N,1.311849,103.87686
TROPICANA CONDOMINIUM,,,N,1.340415,103.961279
GRAND RESIDENCE,,,N,1.352083,103.819836
CHANCERY ESQUIRE,,,N,1.352083,103.819836
TELOK BLANGAH HOUSE,,,N,1.352083,103.819836
SHIRO,,,N,1.352083,103.819836
GILSTEAD 38,,,N,1.318161,103.839139
IDYLLIC SUITES,,,N,1.352083,103.819836
LE REGAL,,,N,1.352083,103.819836
CAMELODGE,,,N,1.352083,103.819836
ORION,,,N,1.308741,103.827705
CALIN MANSIONS,,,N,1.352083,103.819836
PRESTIGE LOFT,,,N,1.352083,103.819836
CRESCENDO BUILDING,,,N,1.31293,103.926349
D0MANSIONS,,,N,1.32501,103.85217
THE ARMADALE,,,N,1.352083,103.819836
MELROSE VILLE,,,N,1.352083,103.819836
BALMORAL GATE,,,N,1.315275,103.832664
CORONA VILLE,,,N,1.352083,103.819836
J GATEWAY,MCL Land (Gateway) Pte Ltd,Gateway Drive,N,1.335535,103.741861
NOVA 88,,,N,1.352083,103.819836
GRAND REGALIA,,,N,1.352083,103.819836
MARTIA RESIDENCE,,,N,1.352083,103.819836
CITYVALE,,,N,1.352083,103.819836
THONG SIA BUILDING,,,N,1.304222,103.836806
CENTRA RESIDENCE,,,N,1.29806,103.852573
ESTILO,,,N,1.352083,103.819836
KOVAN 81,,,N,1.355361,103.878447
TREASURE MANSIONS,,,N,1.352083,103.819836
WOO MON CHEW COURT,,,N,1.315471,103.929478
KIM KEAT LODGE,,,N,1.324109,103.852595
EASTWOOD LODGE,,,N,1.352083,103.819836
EVER LODGE,,,N,1.314632,103.889384
THE BEACON EDGE,,,N,1.352083,103.819836
JC RESIDENCE,,,N,1.352083,103.819836
GLOBAL VILLE,,,N,1.352083,103.819836
SKYLINE 360 @ SAINT THOMAS WALK,,,N,1.29696,103.835769
8 RAJA,,,N,1.343004,103.773352
PIN MANSIONS,,,N,1.364425,103.886279
CAMELOT BY0THE0WATER,,,N,1.352083,103.819836
THE LINC,,,N,1.328136,103.713095
BALMORAL HEIGHTS,,,N,1.315275,103.832664
NEWTON LODGE,,,N,1.352083,103.819836
TEMBELING COURT,,,N,1.310531,103.902828
THOMSON IMPERIAL COURT,,,N,1.352083,103.819836
WATERLOO APARTMENTS,,,N,1.299195,103.851553
LA DOLCE VITA,,,N,1.352083,103.819836
EAST ELEGANCE,,,N,1.352083,103.819836
ONE AKYAB,,,N,1.322787,103.848012
SUITES @ SIMS,,,N,1.352083,103.819836
BAYOU RESIDENCE,,,N,1.352083,103.819836
2 RVG,,,N,1.352083,103.819836
ILLUMINAIRE ON DEVONSHIRE,,,N,1.352083,103.819836
EUNOS GREEN,,,N,1.324087,103.905623
CASA FLORA,,,N,1.352083,103.819836
VILLA CHANCERY,,,N,1.352083,103.819836
PEPYS HILL CONDOMINIUM,,,N,1.352083,103.819836
MARINE VILLE,,,N,1.304408,103.906745
TANQUEELAN SUITES,,,N,1.298294,103.856809
3@SANDILANDS,,,N,1.361879,103.878148
EAST PALM,,,N,1.314512,103.930443
STRAITS RESIDENCES,,,N,1.303895,103.831941
BALMORAL 8,,,N,1.314694,103.832202
CASA ESPERANZA,,,N,1.352083,103.819836
CHELSEA GROVE,,,N,1.352083,103.819836
SHANGHAI ONE,,,N,1.294772,103.82779
MIDTOWN RESIDENCES,Oxley-Lian Beng Pte Ltd,Upper Serangoon Road,N,1.370524,103.895062
SUNSHINE REGENCY,,,N,1.352083,103.819836
CASTLE LOFT,,,N,1.352083,103.819836
EDENZ SUITES,Admin Holdings Pte Ltd,Lorong 28 Geylang,N,1.352083,103.819836
LEITH GROVE,,,N,1.361912,103.875034
VIBES@UPPER SERANGOON,Oxley Global Pte Ltd,Upper Serangoon Road,N,1.34493,103.871123
MINBU VILLA,,,N,1.352083,103.819836
THE CITRON RESIDENCES,Goodland Assets Pte Ltd,Marne Road,N,1.352083,103.819836
MABELLE,,,N,1.352083,103.819836
DELIGHT COURT,,,N,1.352083,103.819836
SUITES @ SURREY,,,N,1.315953,103.841871
WILLYN VILLE,,,N,1.311885,103.796454
ROSYTH VILLE,,,N,1.352083,103.819836
D'HIRO@HILLSIDE,,,N,1.352083,103.819836
ST PATRICK'S LOFT,,,N,1.352083,103.819836
SHEBA LODGE,,,N,1.352083,103.819836
RESIDENCES AT EMERALD HILL,,,N,1.303727,103.839569
CRYSTAL MANSIONS,,,N,1.311356,103.876605
THE BECCAGAYLE,,,N,1.352083,103.819836
EVERITT GREEN,,,N,1.316029,103.901506
EMILY RESIDENCE,,,N,1.304107,103.849093
SEA AVENUE RESIDENCES,,,N,1.352083,103.819836
ONE ROSYTH,Mushrooms Realty Pte Ltd,Rosyth Road,N,1.362897,103.873579
CITY TOWERS,,,N,1.352083,103.819836
THE OCTET,Osmo Capital Pte Ltd,Lorong 24 Geylang,N,1.352083,103.819836
EURO0ASIA APARTMENTS,,,N,1.322955,103.86393
SKT MANSIONS,,,N,1.314733,103.882658
SIGLAP V,,,N,1.312862,103.923705
MEYER MELODIA,Cang Properties Pte Ltd,Meyer Place,N,1.352083,103.819836
RISING COURT,,,N,1.307202,103.904193
SHUNFU VILLE,,,N,1.352083,103.819836
SUNSHINE MANSIONS,,,N,1.352083,103.819836
LOFT @ STEVENS,,,N,1.352083,103.819836
PASIR VIEW PARK,,,N,1.283012,103.785569
PAVILION SQUARE,Pollux Treasures Pte Ltd,Geylang Road,N,1.370243,103.753317
ST MICHAEL'S CONDOMINIUM,,,N,1.352083,103.819836
SIMS MEADOWS,,,N,1.315977,103.887254
MARINE VIEW MANSIONS,,,N,1.303637,103.905411
PENG'S COURT,,,N,1.282372,103.831091
AURA 83,Development 83 Pte Ltd,Duku Road,N,1.352083,103.819836
MARINE MEADOWS,,,N,1.304968,103.916227
GARDEN PARK RESIDENCES,Boulevard Residences Pte Ltd,Lorong M Telok Kurau,N,1.352083,103.819836
PINNACLE 16,,,N,1.2771,103.841344
FIRST POINT SUITES,,,N,1.352083,103.819836
8 EDEN GROVE,,,N,1.344514,103.872588
CASA AROMA,,,N,1.352083,103.819836
THE RESIDENCES AT W SINGAPORE SENTOSA COVE,,,N,1.244819,103.841058
BOONVIEW,,,N,1.351683,103.841295
ESPIRA SUITES,,,N,1.31718,103.912771
ICON @ PASIR PANJANG,,,N,1.352083,103.819836
SOPHIA 98,,,N,1.302211,103.847076
KENG LEE VIEW,,,N,1.313649,103.842625
DYNASTY LODGE,,,N,1.323986,103.792047
CASSIA EDGE,Macly Equity Pte Ltd,Guillemard Road,N,1.352083,103.819836
THE LUSH,,,N,1.352083,103.819836
LLOYD SIXTYFIVE,TG (2010) Pte Ltd,Lloyd Road,N,1.352083,103.819836
EAST GALLERIA,,,N,1.352083,103.819836
RIVIERA 38,,,N,1.316547,103.942071
TAIPAN GRAND,,,N,1.311407,103.933546
RV POINT,Galaxy Land Pte Ltd,River Valley Road,N,1.352083,103.819836
THE ELYSIA,,,N,1.352083,103.819836
LA MAISON,,,N,1.352083,103.819836
DOMUS,,,Y,1.352083,103.819836
BALMORAL RESIDENCES,,,Y,1.352083,103.819836
ONZE @ TANJONG PAGAR,Heeton Holdings Ltd,Kee Seng Street,Y,1.352083,103.819836
UBER 388,,,Y,1.352083,103.819836
D' ALMIRA,,,Y,1.352083,103.819836
LIBERTE,,,Y,1.313979,103.836618
EMERALD EAST,,,Y,1.302076,103.838516
LUXE VILLE,,,Y,1.352083,103.819836
THE ALBRACCA,,,Y,1.352083,103.819836
TIONG BAHRU ESTATE,,,Y,1.286489,103.825134
SUMMER SCENT,,,Y,1.352083,103.819836
THE AZZURO,,,Y,1.352083,103.819836
RICH EAST GARDEN,,,Y,1.352083,103.819836
FRASER SUITES,,,Y,1.352083,103.819836
D' CASTILIA,,,Y,1.352083,103.819836
MILL POINT,,,Y,1.352083,103.819836
GILSTEAD TWO,,,Y,1.315114,103.838436
SUNNY LODGE,,,Y,1.352083,103.819836
THE ESTORIL,,,Y,1.311153,103.801199
ONE ROBIN,,,Y,1.318867,103.828501
DERBYSHIRE HEIGHTS,,,Y,1.316482,103.845819
POMEX COURT,,,Y,1.352083,103.819836
KILLINEY 118,Creslin Pte Ltd,Killiney Road,Y,1.298041,103.838547
ESPIRA SPRING,,,Y,1.352083,103.819836
BERKELEY RESIDENCES,Bvlgari Park Residences Pte Ltd,Lorong N Telok Kurau,Y,1.352083,103.819836
THE AMBROSIA,,,Y,1.352083,103.819836
EDENZ LOFT,A Development Pte Ltd,Lorong 24 Geylang,Y,1.352083,103.819836
BELLERIVE,,,Y,1.352083,103.819836
NOMU,,,Y,1.352083,103.819836
STEVENS LOFT,,,Y,1.352083,103.819836
D'EVELYN,,,Y,1.352083,103.819836
VINA LODGE,,,Y,1.352083,103.819836
CANTIZ @ RAMBAI,,,Y,1.352083,103.819836
KOVANA,,,Y,1.359977,103.885272
RIVERSIDE 48,,,N,1.442065,103.78376
FINLAND GARDENS,,,N,1.352083,103.819836
CAIRNHILL ASTORIA,,,N,1.307049,103.839444
BLISS VILLE,,,N,1.352083,103.819836
SIGLAP LODGE,,,N,1.313607,103.928553
BALMY COURT,,,N,1.352083,103.819836
SMAILING COURT,,,N,1.352083,103.819836
VITRA,,,N,1.352083,103.819836
NEW COURT,,,N,1.28345,103.842833
THE BAYCOURT,,,N,1.352083,103.819836
CHUN TIN COURT,,,N,1.341927,103.773867
TAIPAN JADE,,,N,1.352083,103.819836
STILL 123,,,N,1.313862,103.906383
BAODE BUILDING,,,N,1.352083,103.819836
WALLICH RESIDENCE AT TANJONG PAGAR CENTRE,Belmeth Pte Ltd/Guston Pte Ltd/Perfect Eagle Pte Ltd,Wallich Street,N,1.352083,103.819836
HOMEY GARDENS,,,N,1.278889,103.801499
SIMON PLAZA,,,N,1.36194,103.884927
RIVERSHIRE,,,N,1.352083,103.819836
ONE @ PULASAN,,,N,1.312263,103.905927
THE PEAK @ CAIRNHILL I,,,N,1.352083,103.819836
LOFT 33,Macly Equity Pte Ltd,Lorong 32 Geylang,N,1.346783,103.852544
LA BRISA,,,N,1.352083,103.819836
STELLAR RV,,,N,1.352083,103.819836
WILKIE 87,,,N,1.303265,103.847028
PALM HAVEN,,,N,1.314512,103.930443
SUMMER VIEW,,,N,1.311752,103.878496
DAISY SUITES,,,N,1.343799,103.868392
ESPIRA RESIDENCE,,,N,1.31718,103.912771
EDEN VIEW,,,N,1.344895,103.871733
TOPAZ MANSIONS,,,N,1.328302,103.865807
BALESTIER TOWERS,,,N,1.352083,103.819836
NOVENA LODGE,,,N,1.323623,103.841615
ROYALE MANSIONS,,,N,1.352083,103.819836
HOLLAND TOWER,,,N,1.308119,103.803121
MOULMEIN COURT,,,N,1.319195,103.850088
TORIEVILLE,,,N,1.352083,103.819836
D 0 HERITAGE APARTMENTS,,,N,1.352083,103.819836
WHITE HOUSE RESIDENCES,,,N,1.316805,103.822178
HERTFORD COLLECTION,,,N,1.352083,103.819836
VIVACE,,,N,1.292988,103.840568
QUBE SUITES,,,N,1.352083,103.819836
MAR THOMA MANSIONS,,,N,1.328074,103.863237
OPAL SUITES,,,N,1.352083,103.819836
IVORY,,,N,1.311287,103.900478
MERGUI MANSIONS,,,N,1.317313,103.851787
K0LODGE,,,N,1.352083,103.819836
SUNFLOWER VIEW,,,N,1.352083,103.819836
PRESTIGE POINT,,,N,1.352083,103.819836
THE SCENIC @ BRADDELL,,,N,1.343174,103.86899
THE PALLADIUM,,,N,1.303306,103.903881
THE ESTIVA,,,N,1.352083,103.819836
LEICESTER LODGE,,,N,1.330029,103.867007
THE HILLFORD,World Class Developments (North) Pte Ltd,Jalan Jurong Kechil,N,1.352083,103.819836
THE RIVERSIDE PIAZZA,,,N,1.352083,103.819836
THE ARIEL,,,N,1.352083,103.819836
DONG LONG MANSION,,,N,1.352083,103.819836
CAMBIO SUITES,Urban Lofts Pte Ltd,Lim Tua Tow Road,N,1.352083,103.819836
LA NOUVELLE,,,N,1.352083,103.819836
CENTRO MANSIONS,,,N,1.352083,103.819836
ROBINSON SUITES,50 Robinson Pte Ltd,Robinson Road,N,1.352083,103.819836
MONVILLE MANSIONS,,,N,1.352083,103.819836
KNOX VIEW,,,N,1.352083,103.819836
STILLZ RESIDENCE,,,N,1.352083,103.819836
ONEROBEY,,,N,1.352083,103.819836
KENSINGTON SQUARE,Kensington Village Pte Ltd,Jalan Lokam,N,1.366995,103.866446
AQUENE,,,N,1.314359,103.909139
LE MERRITT,,,N,1.311119,103.913457
SPRING @ LANGSAT,,,N,1.352083,103.819836
CASA JERVOIS,,,N,1.352083,103.819836
CASA EMERALD,,,N,1.352083,103.819836
SHAN GATE APARTMENTS,,,N,1.325692,103.846769
KEMBANGAN COURT,,,N,1.319633,103.91228
SOMMERVILLE LOFT,,,N,1.352083,103.819836
HOLLAND COURT,,,N,1.313073,103.798206
CORONATION GROVE,,,N,1.377863,103.757493
THE CHERRYWOOD,,,N,1.352083,103.819836
THE CASSANDRA,,,N,1.352083,103.819836
OXLEY EDGE,Oxley Mosaic Pte Ltd,River Valley Road,N,1.352083,103.819836
THE CALYPSO,,,N,1.352083,103.819836
THE SPRINGS,,,N,1.319136,103.846716
HOLLAND SUITES,,,N,1.352083,103.819836
RAJAH TOWERS,,,N,1.352083,103.819836
TORIE MANSIONS,,,N,1.311864,103.903183
TEMBELING RESIDENCE,,,N,1.352083,103.819836
FORTUNE SPRING,,,N,1.352083,103.819836
CAMBRIDGE VILLAGE,,,N,1.315,103.848578
JERVOIS GROVE,,,N,1.29524,103.818503
JERVOIS REGENCY,,,N,1.294473,103.821964
THREE 11,Aurum Land Pte Ltd,Upper Thomson Road,N,1.319606,103.647578
VIBES @ KOVAN,,,N,1.352083,103.819836
SHAN COURT,,,N,1.325616,103.846963
NEWTON IMPERIAL,,,N,1.352083,103.819836
MAYBELLE LODGE,,,N,1.312295,103.909123
ROSYTH LODGE,,,N,1.352083,103.819836
THE ADARA,,,N,1.352083,103.819836
HOLLAND HILL LODGE,,,N,1.309461,103.803341
LUCKY COURT,,,N,1.318098,103.941663
EASTBAY,,,N,1.352083,103.819836
SETIA RESIDENCES,,,N,1.352083,103.819836
KAP RESIDENCES,Oxley Sanctuary Pte Ltd,King Albert Park,N,1.352083,103.819836
BALESTIER REGENCY,,,N,1.352083,103.819836
VA RESIDENCES,Wang Yang Development Pte Ltd,Boon Teck Road,N,1.352083,103.819836
EBONY MANSIONS,,,N,1.31038,103.910367
LEONIE HILL RESIDENCES,,,N,1.352083,103.819836
CITY SUITES,Corporate Residence Pte Ltd,Balestier Road,N,1.352083,103.819836
URBAN RESIDENCES,,,N,1.352083,103.819836
SUITES @ OWEN,,,N,1.352083,103.819836
KIM KEAT GARDENS,,,N,1.33024,103.855153
28 SHELFORD,,,N,1.329327,103.811874
57 @ KOVAN,,,N,1.357433,103.880388
R66 APARTMENTS,,,N,1.311652,103.773708
SINGA COURT,,,N,1.330676,103.907269
LIV ON SOPHIA,RH Mount Sophia Pte Ltd,Adis Road,N,1.352083,103.819836
KENT RESIDENCES,,,N,1.352083,103.819836
HILLVIEW APARTMENTS,,,N,1.356201,103.762287
D'GALLERY,,,N,1.319991,103.912268
BELMONDO VIEW,,,N,1.352083,103.819836
THE ARIZON,,,N,1.313783,103.886598
SUITES 123,,,N,1.315265,103.853614
BLISS REGALIA,,,N,1.352083,103.819836
NATURA@HILLVIEW,Mequity (Hillview) Pte Ltd,Hillview Terrace,N,1.352083,103.819836
SEMBAWANG COTTAGE,,,N,1.426947,103.826128
THE SUNNIDORA,,,N,1.352083,103.819836
D'ZIRE,,,N,1.352083,103.819836
THE MORNING GLORY,,,N,1.352083,103.819836
ESTIQUE,,,N,1.352083,103.819836
COSY LODGE,,,N,1.352083,103.819836
EASTWIND MANSIONS,,,N,1.3146,103.902381
MINTON COURT,,,N,1.349957,103.881638
SIGLAP SHOPPING CENTRE,,,N,1.352083,103.819836
NICOLE GREEN,,,N,1.309465,103.879826
HEJI GARDENS,,,N,1.352083,103.819836
D'MIRA,,,N,1.352083,103.819836
D' IXORAS,,,N,1.28871,103.837373
BOON TECK APARTMENTS,,,N,1.32719,103.850686
THE AMSTON,,,N,1.352083,103.819836
THE BOULEVARD RESIDENCE,,,N,1.352083,103.819836
FERRA,Far East Lighthouse Pte Ltd/Orchard Landmark Pte Ltd,Leonie Hill,N,1.352083,103.819836
RACE COURSE MANSION,,,N,1.309943,103.852126
CENTRINA,,,N,1.352083,103.819836
CANBERLIN LODGE,,,N,1.309322,103.876929
CASA IRRAWADDY,,,N,1.324951,103.84603
BUCKLEY RESIDENCE,,,N,1.352083,103.819836
CLYDES RESIDENCE,,,N,1.352083,103.819836
MEYA LODGE,,,N,1.352083,103.819836
HARMONY @ 1A,,,N,1.363206,103.887728
SPAZIO @ KOVAN,Spazio Land Pte Ltd,Upper Serangoon Road,N,1.352083,103.819836
G RESIDENCES,South Island LG Pte Ltd,Lorong G Telok Kurau,N,1.317829,103.832478
CHATEAU LE FAME,,,N,1.316668,103.829365
SUNNY PARC,,,N,1.352083,103.819836
GLAMOUR VILLE,,,N,1.352083,103.819836
LITTLE INDIA CONSERVATION AREA,,,N,1.352083,103.819836
WAN THO LODGE,,,N,1.332932,103.871677
GUILIN COURT,,,N,1.31215,103.8846
D'CAMBRIDGE,,,N,1.352083,103.819836
SAGE,,,Y,1.352083,103.819836
DELFI ORCHARD,,,Y,1.307012,103.828399
SANDY PALM,,,Y,1.352083,103.819836
THE SOUND,,,Y,1.352083,103.819836
JALAN BESAR PLAZA,,,Y,1.308487,103.857309
HOLLAND HILL PARK,,,Y,1.310162,103.801655
KEMBANGAN PLAZA,,,Y,1.32044,103.91272
THE HORIZON,,,Y,1.298406,103.833362
SEASUITES,Link (THM) Greenleaf Pte Ltd,Pasir Panjang Road,N,1.352083,103.819836
MACKENZIE 138,,,N,1.306735,103.846856
SULTAN GATE PLACE,,,N,1.302417,103.860178
BALMORAL POINT,,,N,1.315275,103.832664
CANDEVILLE,,,N,1.310734,103.910873
TREASURE GARDENS,,,N,1.248955,103.842987
DUNEARN LODGE,,,N,1.352083,103.819836
CHARLTON CORNER,,,N,1.354743,103.881872
MAKEWAY VIEW,,,N,1.312153,103.841882
HAPPY MANSION,,,N,1.352083,103.819836
HERITAGE RESIDENCES,,,N,1.352083,103.819836
FUYUEN COURT,,,N,1.315849,103.888907
ONAN COURT,,,N,1.311132,103.900391
KISMIS LODGE,,,N,1.336965,103.76838
PASIR PANJANG COURT,,,N,1.28086,103.784958
GOODWOOD GARDENS,,,N,1.312144,103.833535
WORTHINGTON,,,N,1.352083,103.819836
JERVOIS MEADOWS,,,N,1.294922,103.821179
JANSEN 28,,,N,1.360127,103.876729
BREEZY MANSIONS,,,N,1.352083,103.819836
HUA COURT,,,N,1.337919,103.785202
KOVAN PRIMERA,,,N,1.352083,103.819836
EMPRADO SUITES,,,N,1.352083,103.819836
RE CHARGE @ 303,,,N,1.352083,103.819836
PINE COURT,,,N,1.308108,103.882958
448@EAST COAST,,,N,1.308736,103.913452
URBAN HERITAGE,TIEC Holdings Pte Ltd,Balestier Road,N,1.352083,103.819836
BOON COURT,,,N,1.315549,103.905502
ULTRA MANSION,,,N,1.352083,103.819836
BOUGAINVILLA APARTMENTS,,,N,1.313513,103.879451
MARGATE POINT,,,N,1.299777,103.888766
HOOT KIAM MANSION,,,N,1.296459,103.830084
KINGSTON TERRACE,,,N,1.352083,103.819836
ASPEN LINQ,Optimus Hill Pte Ltd,Institution Hill,N,1.352083,103.819836
BELLEZZA @ KATONG,,,N,1.30691,103.902071
PARC REGENCY,,,N,1.352083,103.819836
PALM RESIDENCE,,,N,1.352083,103.819836
PRESTIGE RESIDENCE,,,N,1.352083,103.819836
DLV.,,,N,1.315619,103.825174
FIFTH AVENUE CONDOMINIUM,,,N,1.352083,103.819836
SKY GREEN,Unique Realty Pte Ltd,Macpherson Road,N,1.352083,103.819836
8 NAPIER,,,N,1.306853,103.820542
SUNSET LODGE,,,N,1.352083,103.819836
MERALODGE,,,N,1.352083,103.819836
VILLA DES FLORES,,,N,1.352083,103.819836
CHANCERY GARDEN,,,N,1.319894,103.837951
SUN ROSIER,,,N,1.352083,103.819836
YI MEI GARDENS,,,N,1.293383,103.802453
MOUNT ROSIE GARDEN,,,N,1.322844,103.835245
SUI GENERIS,,,N,1.352083,103.819836
PARKWAY MANSION,,,N,1.299398,103.899456
KINGSGROVE,,,N,1.352083,103.819836
18 SHELFORD,,,Y,1.327314,103.812824
HERITAGE PLACE,,,Y,1.410224,103.834069
ORCHARD VIEW,,,Y,1.301578,103.838276
CEYLON RESIDENCE,,,Y,1.352083,103.819836
HONOLULU TOWER,,,Y,1.352083,103.819836
THE PROMONT,,,Y,1.352083,103.819836
MILLAGE,Mequity Assets Pte Ltd,Changi Road,Y,1.352083,103.819836
BALMORAL PLAZA,,,Y,1.352083,103.819836
FENARA COURT,,,Y,1.318605,103.911636
LAVERNE'S LOFT,,,Y,1.311242,103.910223
ENVIO,,,Y,1.352083,103.819836
MORIMASA GARDENS,,,N,1.352083,103.819836
SERENE VIEW MANSIONS,,,N,1.352083,103.819836
ASTRIDVILLE,,,N,1.352083,103.819836
PINETREE CONDOMINIUM,,,N,1.352083,103.819836
GISBORNE LIGHT,,,N,1.315698,103.829919
ONAN SUITES,,,N,1.352083,103.819836
CASA MEYA,,,N,1.352083,103.819836
THE EASTSIDE,,,N,1.305226,103.923256
PASADENA,,,N,1.352083,103.819836
YI KAI COURT,,,N,1.352083,103.819836
AROOZOO CENTRE,,,N,1.352083,103.819836
HAMPTON COURT,,,N,1.352083,103.819836
ADAM PLACE,,,N,1.329655,103.814785
CHARISMA VIEW,,,N,1.352083,103.819836
ST PATRICK'S COURT,,,N,1.308075,103.912202
JI XIANG COURT,,,N,1.313064,103.910611
THE MEYER PLACE,,,N,1.298351,103.886458
RANGOON VIEW,,,N,1.315768,103.853482
SYLVAN LODGE,,,N,1.312777,103.798278
3@PHILLIPS,,,N,1.363765,103.874399
SUNBIRD VIEW,,,N,1.339377,103.959243
GREENDALE COURT,,,N,1.331764,103.807291
LE SHANTIER,,,N,1.326362,103.846602
SIMS POINT,,,N,1.313175,103.879462
BLOSSOM MANSIONS,,,N,1.352083,103.819836
TEMBELINA,,,N,1.352083,103.819836
28 IMPERIAL RESIDENCES,,,N,1.352083,103.819836
MARTIN EDGE,,,N,1.352083,103.819836
E7 LODGE,,,N,1.400674,103.747371
ONE DUSUN RESIDENCES,LVND Homes Pte Ltd,Jalan Dusun,N,1.327875,103.843727
TELOK KURAU LODGE,,,N,1.352083,103.819836
THE COTERIE @ HOLLAND,,,N,1.352083,103.819836
EURO0ASIA LODGE,,,N,1.352083,103.819836
WANG LODGE,,,N,1.31162,103.875783
THE TAIPAN,,,N,1.312409,103.934958
PETAIN RD/TYRWHITT RD CON AREA,,,N,1.352083,103.819836
8 BASSEIN,,,N,1.324074,103.848284
SOPHIA LODGE,,,N,1.352083,103.819836
RADIX,,,N,1.352083,103.819836
BOON SING BUILDING,,,N,1.352083,103.819836
GAMBIR RIDGE,Meadows Investment Pte Ltd,Gambir Walk,N,1.34563,103.875495
WILKIE REGENCY,,,N,1.303097,103.847674
CRYSTAL DE AZURE,,,N,1.343446,103.881745
WEDGEWOOD MANSIONS,,,N,1.312419,103.915677
SUNFLOWER MANSIONS,,,N,1.352083,103.819836
TROPICS @ HAIGSVILLE,,,N,1.352083,103.819836
LIEN TOWERS,,,N,1.310021,103.804952
SUMMER GREEN,,,N,1.326895,103.849781
D' PALMA,,,N,1.352083,103.819836
THE ODEON KATONG,,,N,1.352083,103.819836
TAN TONG MENG TOWER,,,N,1.352083,103.819836
RISING SUITES,,,N,1.352083,103.819836
GUILLEMARD VIEW,,,N,1.311105,103.884877
MARSHALL LODGE,,,N,1.352083,103.819836
J C DRAYCOTT,,,N,1.309655,103.832151
WARNER COURT,,,N,1.352083,103.819836
THE MKZ,,,N,1.352083,103.819836
CANBERLIN APARTMENTS,,,N,1.352083,103.819836
PARK HOUSE,,,N,1.278889,103.801499
RICH.RESIDENCE,,,N,1.352083,103.819836
MADEIRA COURT,,,N,1.310279,103.909781
KATONG APARTMENTS,,,N,1.308781,103.910892
FRAGRANCE COURT,,,N,1.352083,103.819836
CHATEAU ELIZA,,,N,1.352083,103.819836
ONE NORTH BRIDGE,,,N,1.28992,103.849345
ST MARTIN'S APARTMENT,,,N,1.29409,103.838112
CLAYMORE PLAZA,,,N,1.307809,103.829943
SAM LEONG MANSION,,,N,1.352083,103.819836
LIANG SEAH COURT,,,N,1.297828,103.856574
EAST VILLAGE,,,N,1.355379,103.867744
GILLENIA,,,N,1.352083,103.819836
MILL CREEK,,,N,1.352083,103.819836
EASTPAC BUILDING,,,N,1.326808,103.843366
BARTLEY COURT,,,N,1.343714,103.87802
VERDUN HOUSE,,,N,1.352083,103.819836
BENG TONG MANSION,,,N,1.352083,103.819836
JERSEY LODGE,,,N,1.352083,103.819836
SIXTH AVENUE CENTRE,,,N,1.331615,103.795031
GALAXY TOWERS,,,N,1.352083,103.819836
SUNFLOWER GRANDEUR,,,N,1.352083,103.819836
SOPHIA MANSION,,,N,1.301537,103.849632
SUNSHINE LOFT,,,N,1.352083,103.819836
CAIRNHILL MANSIONS,,,N,1.352083,103.819836
WOODSVILLE MANSIONS,,,N,1.352083,103.819836
CENTRAL MEADOWS,,,N,1.344211,103.860034
KOON SENG COURT,,,N,1.311561,103.904316
KINGSLEY MANSIONS,,,N,1.326983,103.850137
FARRER PARK SUITES,,,N,1.352083,103.819836
TOP TEN,,,N,1.305885,103.839408
BETA GROVE,,,N,1.352083,103.819836
FAIRHAVEN,,,N,1.352083,103.819836
PEPPERMINT GROVE,,,N,1.352083,103.819836
KEMAMAN VIEW,,,N,1.327344,103.851281
NAM PENG CENTRE,,,N,1.354321,103.878236
LLOYD COURT,,,N,1.297292,103.839565
MOONSTONE ROYALE,,,N,1.352083,103.819836
PRESTO@UPPER SERANGOON,Oxley Global Pte Ltd,Upper Serangoon Road,N,1.355357,103.867871
KUM HING COURT,,,N,1.352083,103.819836
SERAYA VILLE,,,N,1.352083,103.819836
THE VANDERLINT,,,N,1.352083,103.819836
NOVENA VILLE,,,N,1.317064,103.889569
WHITESCAPE,,,N,1.352083,103.819836
CRANE COURT,,,N,1.311969,103.898146
PETAIN COURT,,,N,1.31216,103.858739
UNI BUILDING,,,N,1.352083,103.819836
D'SAVILLE,,,N,1.352083,103.819836
TREESCAPE,,,N,1.352083,103.819836
ENG AUN MANSION,,,N,1.352083,103.819836
EASTERN RESIDENCE,,,N,1.317829,103.832478
THE SUNFLOWER,,,N,1.310706,103.87655
JADE TOWER,,,N,1.352083,103.819836
CHIKU MANSIONS,,,N,1.352083,103.819836
BALESTIER 288,,,N,1.322843,103.852883
ROSYTH RESIDENCE,,,N,1.352083,103.819836
CASA FELIZ,,,N,1.352083,103.819836
KOVAN COURT,,,N,1.358358,103.881172
BLOSSOM VIEW,,,N,1.352083,103.819836
NASSIM 9,,,N,1.30771,103.825357
BARTLEY GROVE,,,N,1.343714,103.87802
RANGOON COURT,,,N,1.315768,103.853482
VICENTA LODGE,,,N,1.32059,103.909163
HAIG LODGE,,,N,1.308115,103.898041
UPPER SERANGOON SHOPPING CENTRE,,,N,1.352083,103.819836
TIVOLI LODGE,,,N,1.315219,103.886953
PADDY GREEN,,,N,1.352083,103.819836
YONG SIAK COURT,,,N,1.282711,103.830341
PEARLS CENTRE,,,N,1.281546,103.840877
APARTMENT 8,,,N,1.305769,103.833078
YING MANSIONS,,,N,1.352083,103.819836
GRAY MANSIONS,,,N,1.312659,103.89343
MADISON RESIDENCES,,,Y,1.352083,103.819836
THE ORANGE GROVE,,,Y,1.310615,103.825973
NASSIM JADE,,,Y,1.352083,103.819836
BEAUFORT ON NASSIM,,,Y,1.352083,103.819836
LOYANG TOWNHOUSES,,,N,1.379236,103.964267
WESTVALE,,,N,1.289138,103.777387
LOYANG GARDENS,,,N,1.378142,103.956765
MARINA COLLECTION,,,Y,1.244021,103.839831
10 SHELFORD,,,Y,1.32591,103.812499
THE AMERALD STUDIO,,,Y,1.30677,103.899172
LEIGHWOODS,,,N,1.315009,103.777313
THE EDGEWATER,,,N,1.352083,103.819836
SARHAD VILLE,,,N,1.280714,103.788507
PEAK COURT CONDOMINIUM,,,N,1.352083,103.819836
GREEN LODGE,,,N,1.352083,103.819836
THE COURTYARD,,,N,1.363873,103.886691
DRAGON MANSION,,,N,1.352083,103.819836
PARRY COURT,,,N,1.364375,103.878378
KATONG PLAZA,,,N,1.302052,103.886191
BRADDELL REGALIA,,,N,1.352083,103.819836
GOODWILL COURT,,,N,1.312958,103.927906
LE MARICAN,,,N,1.352083,103.819836
MANSIONS 28,,,N,1.31527,103.886941
JOO CHIAT APARTMENT,,,N,1.30966,103.902259
MOUNTBATTEN REGENCY,,,N,1.352083,103.819836
PARKWAY VIEW,,,N,1.359532,103.763823
AA CENTRE,,,N,1.295931,103.839378
ROVGALE MANSIONS,,,N,1.352083,103.819836
BOON TECK VIEW,,,N,1.326967,103.85012
THE TWINS,,,N,1.284842,103.828487
TOHO GREEN,,,N,1.366578,103.875785
OCEAN APARTMENTS,,,N,1.352083,103.819836
OCTAVILLE,,,N,1.352083,103.819836
RIVER VALLEY COURT,,,N,1.29552,103.837529
SERAN COURT,,,N,1.352083,103.819836
YINCHUAN BUILDING,,,N,1.313826,103.885644
EAST 25 APARTMENTS,,,N,1.332253,103.788453
REGENT COURT,,,N,1.403684,103.86719
AFFLUENCE COURT,,,N,1.350263,103.883108
CEYLON POINT,,,N,1.308594,103.900655
TG MANSION,,,N,1.352083,103.819836
BRIGHTVIEW APARTMENTS,,,N,1.312003,103.884768
DAISY APARTMENTS,,,N,1.352083,103.819836
GRAND TOWER,,,N,1.352083,103.819836
RIVA LODGE,,,N,1.352083,103.819836
ETON COURT,,,Y,1.38829,103.877328
BRADDELL PARK,,,Y,1.343212,103.85556
CAIRNHILL HEIGHTS,,,Y,1.306578,103.837381
FIFTY0TWO STEVENS,,,N,1.352083,103.819836
GIFFARD MANSIONS,,,N,1.32588,103.84936
MARTIA 8,,,N,1.307313,103.910736
ADVANCE APARTMENTS,,,N,1.313961,103.883281
CHARLTON COURT,,,N,1.354743,103.881872
PERMAI COURT,,,N,1.352083,103.819836
HONG LEONG GARDEN SHOPPING CENTRE,,,N,1.352083,103.819836
PERPETUAL APARTMENTS,,,N,1.352083,103.819836
THE THOMSON DUPLEX,,,N,1.352083,103.819836
HOCK MANSION,,,N,1.302372,103.848589
SERAYA COURT,,,N,1.306927,103.899437
TAIPAN REGENCY,,,N,1.307027,103.898894
DUCHESS ROYALE,,,N,1.352083,103.819836
SCK VILLE,,,N,1.307927,103.899154
AUSTRAL VIEW,,,N,1.352083,103.819836
EAST TREASURE,,,N,1.248955,103.842987
OWEN COURT,,,N,1.31369,103.853063
CHONG KIM APARTMENT,,,N,1.352083,103.819836
INOVA 100,,,N,1.352083,103.819836
PELIKAT MANSIONS,,,N,1.352083,103.819836
FORTREDALE,,,N,1.352083,103.819836
ASTON LODGE,,,N,1.352083,103.819836
DUNEARN COURT,,,N,1.324529,103.8118
THE WILSHIRE,,,N,1.317354,103.941775
EN FU MANSIONS,,,N,1.315575,103.887621
ROBIN STAR,,,N,1.352083,103.819836
LE ARC,,,N,1.352083,103.819836
THE STRADIA,,,N,1.352083,103.819836
THE CHAMPAGNE,,,N,1.352083,103.819836
COSY 23,,,N,1.352083,103.819836
KILAT 19,,,N,1.340965,103.773614
RIVAN COURT,,,N,1.352083,103.819836
BOWMONT CENTRE,,,N,1.352083,103.819836
THOMSON VALE,,,N,1.327496,103.841345
KENG YEE GARDEN,,,N,1.328121,103.715832
TWO8ONE STUDIO,,,N,1.352083,103.819836
NEWTON VIEW,,,N,1.316707,103.841466
CAMAY COURT,,,N,1.352083,103.819836
GILSTEAD MANSION,,,N,1.318333,103.839673
WATERLOO VIEW,,,N,1.299382,103.852032
EAST SHORE COURT,,,N,1.369691,103.867957
WILKIE 48,,,N,1.302293,103.848188
LEONG BEE COURT,,,N,1.329861,103.868961
MACKENZIE MANSIONS,,,N,1.352083,103.819836
LENGKONG COURT,,,N,1.328221,103.91293
AMBER TOWERS,,,N,1.352083,103.819836
ST THOMAS LODGE,,,N,1.352083,103.819836
VILLA D'ESTE,,,N,1.352083,103.819836
BALMORAL CONDOMINIUM,,,N,1.352083,103.819836
ASIA GARDENS,,,N,1.31384,103.815914
CAI GARDEN,,,N,1.352083,103.819836
HIGHLAND CONDOMINIUM,,,N,1.352083,103.819836
RICH MANSION,,,Y,1.352083,103.819836
ST PATRICK'S GARDEN,,,Y,1.308102,103.912675
MARINE POINT,,,N,1.307292,103.917465
AMBERGLADES,,,N,1.352083,103.819836
MACPHERSON GREEN,,,N,1.331138,103.878781
BARTLEY TERRACE,,,N,1.343714,103.87802
JASMINE COURT,,,N,1.354925,103.829885
THE VILLAGE,,,N,1.355379,103.867744
THE RIVERVALE,,,Y,1.352083,103.819836
TWIN FOUNTAINS,,,Y,1.352083,103.819836
THE CANOPY,,,Y,1.253903,103.824356
1 CANBERRA,,,Y,1.447931,103.822174
NUOVO,,,Y,1.384338,103.842368
TWIN WATERFALLS,,,Y,1.402538,103.896819
BLOSSOM RESIDENCES,,,Y,1.352083,103.819836
PINEVALE,,,Y,1.352083,103.819836
ARC AT TAMPINES,,,Y,1.349591,103.956788
THE TOPIARY,,,Y,1.352083,103.819836
BELYSA,,,Y,1.374113,103.941735
WESTWOOD RESIDENCES,KBD Westwood Pte Ltd,Westwood Avenue,Y,1.352083,103.819836
FORESTVILLE,Hao Yuan Investment Pte Ltd,Woodlands Drive 16,Y,1.352083,103.819836
WATERWOODS,Coral Edge Development Pte Ltd,Punggol Field Walk,Y,1.352083,103.819836
PRIVE,,,Y,1.352083,103.819836
THE QUINTET,,,Y,1.352083,103.819836
THE RAINFOREST,,,Y,1.308756,103.818067
WATERCOLOURS,,,Y,1.352083,103.819836
ESPARINA RESIDENCES,,,Y,1.352083,103.819836
THE DEW,,,Y,1.448201,103.801756
AUSTVILLE RESIDENCES,,,Y,1.381339,103.901383
SIMEI GREEN CONDOMINIUM,,,Y,1.34022,103.959212
HERON BAY,,,Y,1.352083,103.819836
RIVERPARC RESIDENCE,,,Y,1.397974,103.917683
NORTHOAKS,,,Y,1.352083,103.819836
WHITEWATER,,,Y,1.352083,103.819836
WOODSVALE,,,Y,1.443887,103.806223
THE EDEN AT TAMPINES,,,Y,1.349591,103.956788
PARK GREEN,,,Y,1.347895,103.788828
WATERBAY,,,Y,1.352083,103.819836
LUSH ACRES,,,Y,1.352083,103.819836
THE TAMPINES TRILLIANT,,,Y,1.352083,103.819836
CITYLIFE@TAMPINES,,,Y,1.349591,103.956788
BISHAN LOFT,,,Y,1.346783,103.852544
BELLEWOODS,Qingjian Realty (Woodlands) Pte Ltd,Woodlands Avenue 5,Y,1.352083,103.819836
WHITLEY HEIGHTS,,,N,1.327113,103.840575
ST MARTIN'S RESIDENCES,,,N,1.29409,103.838112
SHELFORD GREEN,,,N,1.327497,103.811276
ECOPOLITAN,Qingjian Realty (Punggol Way) Pte Ltd,Punggol Walk,N,1.352083,103.819836
SEA HORIZON,Hao Yuan Development Pte Ltd,Pasir Ris Rise,N,1.352083,103.819836
THE ESPARIS,,,N,1.352083,103.819836
EASTVALE,,,N,1.352083,103.819836
YEW MEI GREEN,,,N,1.394588,103.75187
CHESTERVALE,,,N,1.352083,103.819836
SUMMERDALE,,,N,1.352083,103.819836
THE FLORAVALE,,,N,1.352083,103.819836
LILYDALE,,,N,1.424919,103.849071
THE FLORIDA,,,N,1.356552,103.827184
SKYPARK RESIDENCES,Oasis Development Pte Ltd,Sembawang Crescent,N,1.352083,103.819836
WESTMERE,,,N,1.352083,103.819836
WANDERVALE,Sim Lian (Starlight) Pte Ltd,Choa Chu Kang Avenue 3,N,1.352083,103.819836
THE BROWNSTONE,Canvey Developments Pte Ltd,Canberra Drive,N,1.352083,103.819836
THE VALES,Anchorvale Residences Pte Ltd,Anchorvale Crescent,N,1.387635,103.904936
THE TERRACE,Peak Square Pte Ltd,Edgedale Plains,N,1.279358,103.786208
BELLEWATERS,Qingjian Realty (Anchorvale) Pte Ltd,Anchorvale Crescent,N,1.352083,103.819836
SOL ACRES,MCL Land (Brighton) Pte Ltd,Choa Chu Kang Grove,N,1.352083,103.819836
THE AMORE,MKH (Punggol) Pte Ltd,Edgedale Plains,N,1.352083,103.819836
SIGNATURE AT YISHUN,Gee-I Investments Pte Ltd,Yishun Street 51,N,1.430368,103.835363
THE CRITERION,Island Glades Developments Pte Ltd,Yishun Street 51,N,1.352083,103.819836
LAKE LIFE,,,N,1.352083,103.819836
THE VISIONAIRE,Qingjian Realty (Sembawang) Pte Ltd,Canberra Drive,N,1.352083,103.819836
PARC LIFE,Sembawang Residences Pte Ltd,Sembawang Crescent,N,1.352083,103.819836
TREASURE CREST,,,N,1.248955,103.842987
NORTHWAVE,,,N,1.352083,103.819836
